<?xml version='1.0' encoding='utf-8'?>
<q:quakeml xmlns="http://quakeml.org/xmlns/bed/1.2" xmlns:q="http://quakeml.org/xmlns/quakeml/1.2">
  <eventParameters publicID="smi:local/bd5f48d5-58a8-485b-a7b8-48a5b6ced8f7">
    <event publicID="smi:local/5e55b6b8-f9f3-440f-9415-72e1d65c2ddc">
      <preferredOriginID>smi:local/870594c4-fa46-42ff-8526-0a1e721c4b0b</preferredOriginID>
      <comment>
        <text></text>
      </comment>
      <creationInfo>
        <author>surfQuake   obs:/Volumes/LaCie/all_andorra/mini_test/outputs_sh/real/output_directory/nll_input.txt   NLLoc:v7.00.13(17Jan2022)</author>
        <creationTime>2024-02-29T14:00:36.000000Z</creationTime>
        <version></version>
      </creationInfo>
      <origin publicID="smi:local/870594c4-fa46-42ff-8526-0a1e721c4b0b">
        <time>
          <value>2022-02-01T01:35:15.775338Z</value>
        </time>
        <latitude>
          <value>42.616423</value>
          <uncertainty>0.006770267224971872</uncertainty>
        </latitude>
        <longitude>
          <value>0.762047</value>
          <uncertainty>0.012188843836850404</uncertainty>
        </longitude>
        <depth>
          <value>23886.719</value>
          <uncertainty>2478.289732860143</uncertainty>
          <confidenceLevel>68</confidenceLevel>
        </depth>
        <depthType>from location</depthType>
        <quality>
          <associatedPhaseCount>9</associatedPhaseCount>
          <usedPhaseCount>9</usedPhaseCount>
          <associatedStationCount>-1</associatedStationCount>
          <usedStationCount>6</usedStationCount>
          <depthPhaseCount>-1</depthPhaseCount>
          <standardError>0.330305</standardError>
          <azimuthalGap>292.327</azimuthalGap>
          <secondaryAzimuthalGap>292.327</secondaryAzimuthalGap>
          <groundTruthLevel>-</groundTruthLevel>
          <minimumDistance>0.3427395579100815</minimumDistance>
          <maximumDistance>0.6274998518865824</maximumDistance>
          <medianDistance>0.4670338977425033</medianDistance>
        </quality>
        <comment>
          <text>Note: Depth/Latitude/Longitude errors are calculated from covariance matrix as 1D marginal (Lon/Lat errors as great circle degrees) while OriginUncertainty min/max horizontal errors are calculated from 2D error ellipsoid and are therefore seemingly higher compared to 1D errors. Error estimates can be reconstructed from the following original NonLinLoc error statistics line:
STATISTICS ExpectX 62.112179 Y 179.892325 Z 23.245572  CovXX 1.83694 XY -0.208638 XZ 0.793514 YY 0.566737 YZ 0.0964804 ZZ 6.14192 EllAz1  190.486 Dip1  2.43886 Len1  1.35997 Az2  280.907 Dip2  9.80194 Len2  2.47659 Len3  4.709877e+00</text>
        </comment>
        <creationInfo>
          <author>surfQuake   obs:/Volumes/LaCie/all_andorra/mini_test/outputs_sh/real/output_directory/nll_input.txt   NLLoc:v7.00.13(17Jan2022)</author>
          <creationTime>2024-02-29T14:00:36.000000Z</creationTime>
          <version></version>
        </creationInfo>
        <originUncertainty>
          <preferredDescription>uncertainty ellipse</preferredDescription>
          <minHorizontalUncertainty>1107.5600000000002</minHorizontalUncertainty>
          <maxHorizontalUncertainty>2074.0699999999997</maxHorizontalUncertainty>
          <azimuthMaxHorizontalUncertainty>99.093</azimuthMaxHorizontalUncertainty>
          <confidenceLevel>68.0</confidenceLevel>
        </originUncertainty>
        <arrival publicID="smi:local/7767d413-4968-4a4b-9614-d45bf74bfbf1">
          <pickID>smi:local/fff6f863-894a-4a4d-ba4c-df1b881471eb</pickID>
          <phase>P</phase>
          <azimuth>65.4</azimuth>
          <takeoffAngle>
            <value>117.3</value>
          </takeoffAngle>
          <timeResidual>-0.3871</timeResidual>
          <timeWeight>1.005</timeWeight>
        </arrival>
        <arrival publicID="smi:local/80ff7f41-6668-45da-b118-9986d3fb8e42">
          <pickID>smi:local/39e271d1-821b-4037-b5e8-42f8a2975419</pickID>
          <phase>S</phase>
          <azimuth>65.4</azimuth>
          <takeoffAngle>
            <value>117.3</value>
          </takeoffAngle>
          <timeResidual>0.3642</timeResidual>
          <timeWeight>1.005</timeWeight>
        </arrival>
        <arrival publicID="smi:local/9095546a-8ce3-4278-8afe-9ae05a4ef451">
          <pickID>smi:local/038071ac-ae9c-4994-9fbf-bad02358a6c8</pickID>
          <phase>P</phase>
          <azimuth>92.8</azimuth>
          <takeoffAngle>
            <value>116.0</value>
          </takeoffAngle>
          <timeResidual>0.3999</timeResidual>
          <timeWeight>1.0</timeWeight>
        </arrival>
        <arrival publicID="smi:local/a027b09a-7a83-46cb-8691-fef83a36e0c9">
          <pickID>smi:local/444baa3c-c7bd-4968-96a0-a1866b7578af</pickID>
          <phase>S</phase>
          <azimuth>92.8</azimuth>
          <takeoffAngle>
            <value>116.0</value>
          </takeoffAngle>
          <timeResidual>-0.1013</timeResidual>
          <timeWeight>1.0042</timeWeight>
        </arrival>
        <arrival publicID="smi:local/31480840-53da-4713-a853-e8c0b9934bba">
          <pickID>smi:local/a0ab9e24-7fef-4993-a0bd-09bda48e3b02</pickID>
          <phase>S</phase>
          <azimuth>131.2</azimuth>
          <takeoffAngle>
            <value>115.6</value>
          </takeoffAngle>
          <timeResidual>-0.3852</timeResidual>
          <timeWeight>1.0031</timeWeight>
        </arrival>
        <arrival publicID="smi:local/eff16bdd-3945-45a3-8dc6-5b8e1b36aca7">
          <pickID>smi:local/9aa0bad1-1b57-4a65-b747-f268cb2744ea</pickID>
          <phase>P</phase>
          <azimuth>133.1</azimuth>
          <takeoffAngle>
            <value>99.0</value>
          </takeoffAngle>
          <timeResidual>0.1139</timeResidual>
          <timeWeight>0.9957</timeWeight>
        </arrival>
        <arrival publicID="smi:local/beafab4a-4b43-4c2b-9023-a739f8de2b77">
          <pickID>smi:local/a815c2f9-da15-42c1-8194-807bb5f70791</pickID>
          <phase>S</phase>
          <azimuth>133.1</azimuth>
          <takeoffAngle>
            <value>99.0</value>
          </takeoffAngle>
          <timeResidual>0.085</timeResidual>
          <timeWeight>0.9957</timeWeight>
        </arrival>
        <arrival publicID="smi:local/3ec47099-bc15-4987-af7f-87e584090cd0">
          <pickID>smi:local/cbad969c-fb27-4355-9c0c-17c18528bb2f</pickID>
          <phase>S</phase>
          <azimuth>99.1</azimuth>
          <takeoffAngle>
            <value>99.7</value>
          </takeoffAngle>
          <timeResidual>0.3787</timeResidual>
          <timeWeight>0.9957</timeWeight>
        </arrival>
        <arrival publicID="smi:local/08b92730-9885-4f39-82cd-77100c9e5010">
          <pickID>smi:local/d59efc87-48e5-4b57-b00d-3d4abc0c47a8</pickID>
          <phase>S</phase>
          <azimuth>70.8</azimuth>
          <takeoffAngle>
            <value>93.1</value>
          </takeoffAngle>
          <timeResidual>-0.4659</timeResidual>
          <timeWeight>0.9957</timeWeight>
        </arrival>
      </origin>
      <pick publicID="smi:local/fff6f863-894a-4a4d-ba4c-df1b881471eb">
        <time>
          <value>2022-02-01T01:35:22.260000Z</value>
          <uncertainty>0.005</uncertainty>
        </time>
        <waveformID networkCode="" stationCode="SALF"></waveformID>
        <phaseHint>P</phaseHint>
      </pick>
      <pick publicID="smi:local/39e271d1-821b-4037-b5e8-42f8a2975419">
        <time>
          <value>2022-02-01T01:35:27.010000Z</value>
          <uncertainty>0.005</uncertainty>
        </time>
        <waveformID networkCode="" stationCode="SALF"></waveformID>
        <phaseHint>S</phaseHint>
      </pick>
      <pick publicID="smi:local/038071ac-ae9c-4994-9fbf-bad02358a6c8">
        <time>
          <value>2022-02-01T01:35:22.860000Z</value>
          <uncertainty>0.015</uncertainty>
        </time>
        <waveformID networkCode="" stationCode="CEST"></waveformID>
        <phaseHint>P</phaseHint>
      </pick>
      <pick publicID="smi:local/444baa3c-c7bd-4968-96a0-a1866b7578af">
        <time>
          <value>2022-02-01T01:35:27.690000Z</value>
          <uncertainty>0.0075</uncertainty>
        </time>
        <waveformID networkCode="" stationCode="CEST"></waveformID>
        <phaseHint>S</phaseHint>
      </pick>
      <pick publicID="smi:local/a0ab9e24-7fef-4993-a0bd-09bda48e3b02">
        <time>
          <value>2022-02-01T01:35:29.040000Z</value>
          <uncertainty>0.01</uncertainty>
        </time>
        <waveformID networkCode="" stationCode="CSOR"></waveformID>
        <phaseHint>S</phaseHint>
      </pick>
      <pick publicID="smi:local/9aa0bad1-1b57-4a65-b747-f268cb2744ea">
        <time>
          <value>2022-02-01T01:35:26.980000Z</value>
          <uncertainty>0.02</uncertainty>
        </time>
        <waveformID networkCode="" stationCode="CORG"></waveformID>
        <phaseHint>P</phaseHint>
      </pick>
      <pick publicID="smi:local/a815c2f9-da15-42c1-8194-807bb5f70791">
        <time>
          <value>2022-02-01T01:35:35.340000Z</value>
          <uncertainty>0.02</uncertainty>
        </time>
        <waveformID networkCode="" stationCode="CORG"></waveformID>
        <phaseHint>S</phaseHint>
      </pick>
      <pick publicID="smi:local/cbad969c-fb27-4355-9c0c-17c18528bb2f">
        <time>
          <value>2022-02-01T01:35:35.840000Z</value>
          <uncertainty>0.02</uncertainty>
        </time>
        <waveformID networkCode="" stationCode="PAND"></waveformID>
        <phaseHint>S</phaseHint>
      </pick>
      <pick publicID="smi:local/d59efc87-48e5-4b57-b00d-3d4abc0c47a8">
        <time>
          <value>2022-02-01T01:35:36.270000Z</value>
          <uncertainty>0.02</uncertainty>
        </time>
        <waveformID networkCode="" stationCode="GENF"></waveformID>
        <phaseHint>S</phaseHint>
      </pick>
    </event>
    <event publicID="smi:local/fdc32fe2-63b0-4e6e-b81d-fb3ad712200e">
      <preferredOriginID>smi:local/bccad425-57d3-41f9-8ba6-bd7369fee972</preferredOriginID>
      <comment>
        <text></text>
      </comment>
      <creationInfo>
        <author>surfQuake   obs:/Volumes/LaCie/all_andorra/mini_test/outputs_sh/real/output_directory/nll_input.txt   NLLoc:v7.00.13(17Jan2022)</author>
        <creationTime>2024-02-29T14:00:36.000000Z</creationTime>
        <version></version>
      </creationInfo>
      <origin publicID="smi:local/bccad425-57d3-41f9-8ba6-bd7369fee972">
        <time>
          <value>2022-02-01T02:03:00.276594Z</value>
        </time>
        <latitude>
          <value>42.500311</value>
          <uncertainty>0.0030239546912556176</uncertainty>
        </latitude>
        <longitude>
          <value>1.461898</value>
          <uncertainty>0.0025811846136714676</uncertainty>
        </longitude>
        <depth>
          <value>5297.852</value>
          <uncertainty>996.8821394728667</uncertainty>
          <confidenceLevel>68</confidenceLevel>
        </depth>
        <depthType>from location</depthType>
        <quality>
          <associatedPhaseCount>20</associatedPhaseCount>
          <usedPhaseCount>20</usedPhaseCount>
          <associatedStationCount>-1</associatedStationCount>
          <usedStationCount>10</usedStationCount>
          <depthPhaseCount>-1</depthPhaseCount>
          <standardError>0.192742</standardError>
          <azimuthalGap>60.244</azimuthalGap>
          <secondaryAzimuthalGap>60.244</secondaryAzimuthalGap>
          <groundTruthLevel>-</groundTruthLevel>
          <minimumDistance>0.06594122790726085</minimumDistance>
          <maximumDistance>0.6152951583726592</maximumDistance>
          <medianDistance>0.31020030356472994</medianDistance>
        </quality>
        <comment>
          <text>Note: Depth/Latitude/Longitude errors are calculated from covariance matrix as 1D marginal (Lon/Lat errors as great circle degrees) while OriginUncertainty min/max horizontal errors are calculated from 2D error ellipsoid and are therefore seemingly higher compared to 1D errors. Error estimates can be reconstructed from the following original NonLinLoc error statistics line:
STATISTICS ExpectX 119.837340 Y 166.830476 Z 5.212173  CovXX 0.0823774 XY -0.0127454 XZ 0.0481325 YY 0.113063 YZ -0.0678602 ZZ 0.993774 EllAz1  73.4588 Dip1  -1.67594 Len1  0.52177 Az2  343.608 Dip2  5.09074 Len2  0.624584 Len3  1.880314e+00</text>
        </comment>
        <creationInfo>
          <author>surfQuake   obs:/Volumes/LaCie/all_andorra/mini_test/outputs_sh/real/output_directory/nll_input.txt   NLLoc:v7.00.13(17Jan2022)</author>
          <creationTime>2024-02-29T14:00:36.000000Z</creationTime>
          <version></version>
        </creationInfo>
        <originUncertainty>
          <preferredDescription>uncertainty ellipse</preferredDescription>
          <minHorizontalUncertainty>422.94300000000004</minHorizontalUncertainty>
          <maxHorizontalUncertainty>520.224</maxHorizontalUncertainty>
          <azimuthMaxHorizontalUncertainty>160.142</azimuthMaxHorizontalUncertainty>
          <confidenceLevel>68.0</confidenceLevel>
        </originUncertainty>
        <arrival publicID="smi:local/7994668f-ce3d-4bd5-b4ad-b5874ade40d4">
          <pickID>smi:local/a38cf386-aed2-4c10-a4cb-169ccda72881</pickID>
          <phase>P</phase>
          <azimuth>69.2</azimuth>
          <takeoffAngle>
            <value>134.2</value>
          </takeoffAngle>
          <timeResidual>0.1246</timeResidual>
          <timeWeight>1.0013</timeWeight>
        </arrival>
        <arrival publicID="smi:local/30a55772-8c2e-4bf8-9855-0e07e49cab48">
          <pickID>smi:local/cec0e174-a640-4585-b81d-c1e4ffa409cf</pickID>
          <phase>S</phase>
          <azimuth>69.2</azimuth>
          <takeoffAngle>
            <value>134.2</value>
          </takeoffAngle>
          <timeResidual>0.1467</timeResidual>
          <timeWeight>1.0009</timeWeight>
        </arrival>
        <arrival publicID="smi:local/7b9652e9-2e6e-4def-b94a-a47b769f6eb0">
          <pickID>smi:local/cdb43399-107f-4136-8cc0-127cb413df76</pickID>
          <phase>P</phase>
          <azimuth>140.5</azimuth>
          <takeoffAngle>
            <value>128.1</value>
          </takeoffAngle>
          <timeResidual>-0.0578</timeResidual>
          <timeWeight>1.0013</timeWeight>
        </arrival>
        <arrival publicID="smi:local/afb781fd-6d0b-4eb1-850a-59dbd1c87ec2">
          <pickID>smi:local/326680fe-99a9-481b-bc5d-7ca5c5f1072b</pickID>
          <phase>S</phase>
          <azimuth>140.5</azimuth>
          <takeoffAngle>
            <value>128.1</value>
          </takeoffAngle>
          <timeResidual>-0.179</timeResidual>
          <timeWeight>0.999</timeWeight>
        </arrival>
        <arrival publicID="smi:local/1d8e075a-8d34-4c82-a8d8-b92b99a53c60">
          <pickID>smi:local/3703f7db-a691-4416-a12a-bd5ce3e39009</pickID>
          <phase>P</phase>
          <azimuth>302.4</azimuth>
          <takeoffAngle>
            <value>108.0</value>
          </takeoffAngle>
          <timeResidual>0.3481</timeResidual>
          <timeWeight>1.0009</timeWeight>
        </arrival>
        <arrival publicID="smi:local/5cdee79f-e7a7-42a4-a349-9be6921bef62">
          <pickID>smi:local/34b97f29-f89c-4f2b-815f-5a24f6a0a62e</pickID>
          <phase>S</phase>
          <azimuth>302.4</azimuth>
          <takeoffAngle>
            <value>108.0</value>
          </takeoffAngle>
          <timeResidual>-0.2054</timeResidual>
          <timeWeight>1.0001</timeWeight>
        </arrival>
        <arrival publicID="smi:local/3db8bbe5-d5e6-4c05-9f26-3a7d2a6c24a6">
          <pickID>smi:local/039459c7-2da9-4a1c-95c5-119eaefe4d4a</pickID>
          <phase>P</phase>
          <azimuth>242.4</azimuth>
          <takeoffAngle>
            <value>102.5</value>
          </takeoffAngle>
          <timeResidual>0.1445</timeResidual>
          <timeWeight>1.0013</timeWeight>
        </arrival>
        <arrival publicID="smi:local/dfb9f7fa-734f-4462-9f9e-3fcfc2698344">
          <pickID>smi:local/4b48d73d-f78a-4bb6-8057-971bfc6babb9</pickID>
          <phase>S</phase>
          <azimuth>242.4</azimuth>
          <takeoffAngle>
            <value>102.5</value>
          </takeoffAngle>
          <timeResidual>-0.0016</timeResidual>
          <timeWeight>1.0009</timeWeight>
        </arrival>
        <arrival publicID="smi:local/3642f57f-cc86-49e6-92df-4e96f7ed44c1">
          <pickID>smi:local/5ff58186-20ef-4f2e-877f-229029c96b5f</pickID>
          <phase>P</phase>
          <azimuth>200.8</azimuth>
          <takeoffAngle>
            <value>101.0</value>
          </takeoffAngle>
          <timeResidual>-0.1723</timeResidual>
          <timeWeight>1.0009</timeWeight>
        </arrival>
        <arrival publicID="smi:local/df9686f2-cb01-4cf6-879b-cb424ccff146">
          <pickID>smi:local/3010a31d-f6f9-4c28-8f74-871b58500404</pickID>
          <phase>S</phase>
          <azimuth>200.8</azimuth>
          <takeoffAngle>
            <value>101.0</value>
          </takeoffAngle>
          <timeResidual>0.0978</timeResidual>
          <timeWeight>0.9959</timeWeight>
        </arrival>
        <arrival publicID="smi:local/06df268b-d180-47ff-b7dd-b02f7ce8770b">
          <pickID>smi:local/b91c5b5c-4953-46e5-a82b-562cd6ee5b36</pickID>
          <phase>P</phase>
          <azimuth>321.6</azimuth>
          <takeoffAngle>
            <value>100.1</value>
          </takeoffAngle>
          <timeResidual>-0.3257</timeResidual>
          <timeWeight>1.0001</timeWeight>
        </arrival>
        <arrival publicID="smi:local/c78f54e6-1860-44e7-850d-5184cb81e8ef">
          <pickID>smi:local/4ef75a64-b522-4130-9a95-2a480af1d0a4</pickID>
          <phase>S</phase>
          <azimuth>321.6</azimuth>
          <takeoffAngle>
            <value>100.1</value>
          </takeoffAngle>
          <timeResidual>0.2962</timeResidual>
          <timeWeight>0.999</timeWeight>
        </arrival>
        <arrival publicID="smi:local/f2ed48d7-286c-49ee-90fc-204f2b1fa059">
          <pickID>smi:local/cf813ce9-86ac-4154-a23d-4c9084632087</pickID>
          <phase>P</phase>
          <azimuth>13.1</azimuth>
          <takeoffAngle>
            <value>100.1</value>
          </takeoffAngle>
          <timeResidual>-0.1257</timeResidual>
          <timeWeight>1.0009</timeWeight>
        </arrival>
        <arrival publicID="smi:local/bdeb46fa-a7ae-437f-9dea-d31c898f141e">
          <pickID>smi:local/b2b52e9e-084b-4c7a-a7b3-9a719d2b33f4</pickID>
          <phase>S</phase>
          <azimuth>13.1</azimuth>
          <takeoffAngle>
            <value>100.1</value>
          </takeoffAngle>
          <timeResidual>-0.3804</timeResidual>
          <timeWeight>1.0001</timeWeight>
        </arrival>
        <arrival publicID="smi:local/fd62dc33-12e7-4ae8-85a1-08a15efeb0a5">
          <pickID>smi:local/5f63acd4-84b6-4372-93d9-410491491f1a</pickID>
          <phase>P</phase>
          <azimuth>104.7</azimuth>
          <takeoffAngle>
            <value>98.4</value>
          </takeoffAngle>
          <timeResidual>0.0863</timeResidual>
          <timeWeight>1.0013</timeWeight>
        </arrival>
        <arrival publicID="smi:local/03ad2c95-2f8b-4c28-99de-5d4a15d71e91">
          <pickID>smi:local/11dcef3d-7d0f-4bfb-bfd0-aaf7d3b4ff27</pickID>
          <phase>S</phase>
          <azimuth>104.7</azimuth>
          <takeoffAngle>
            <value>98.4</value>
          </takeoffAngle>
          <timeResidual>-0.1585</timeResidual>
          <timeWeight>0.9959</timeWeight>
        </arrival>
        <arrival publicID="smi:local/9c33a0f6-8370-4b81-94a1-76b03bdc5a58">
          <pickID>smi:local/ce438815-d244-4dec-b5ea-767f5d67a13f</pickID>
          <phase>P</phase>
          <azimuth>65.4</azimuth>
          <takeoffAngle>
            <value>97.1</value>
          </takeoffAngle>
          <timeResidual>0.0474</timeResidual>
          <timeWeight>1.0013</timeWeight>
