NLLOC "/Volumes/LaCie/test_surfquake/Granada/outputs/nll/loc/location.20210126.215456.grid0" "LOCATED" "Location completed."
PUBLIC_ID None
SIGNATURE "surfQuake   obs:/Volumes/LaCie/test_surfquake/Granada/outputs/real/output_directory/nll_input.txt   NLLoc:v7.00.13(17Jan2022)   run:03Feb2025 11h53m00"
COMMENT ""
GRID  361 181 601  -180 -90 0  1 1 1 PROB_DENSITY
SEARCH OCTREE nInitial 17628 nEvaluated 50012 smallestNodeSide 0.250590/0.203604/0.048828 oct_tree_integral 1.340749e+00 scatter_volume 1.338299e+00
HYPOCENTER  x -3.69929 y 37.1988 z 3.2959  OT 55.2279  ix -1 iy -1 iz -1 MAXIMUM_LIKELIHOOD
GEOGRAPHIC  OT 2021 01 26  21 54 55.227870  Lat 37.198792 Long -3.699294 Depth 3.295898
QUALITY  Pmax 1.70724e+89 MFmin 32.9894 MFmax 33.1557 RMS 0.289593 Nphs 33 Gap 63.8338 Dist 0.0593621 Mamp -9.90 0 Mdur -9.90 0
VPVSRATIO  VpVsRatio 1.6723  Npair 15  Diff 30.109
STATISTICS  ExpectX -3.699619 Y 37.195423 Z 3.404042  CovXX 0.0792758 XY -0.00162994 XZ -0.0755729 YY 0.347523 YZ 0.105999 ZZ 0.650626 EllAz1  272.68 Dip1  -7.8734 Len1  0.493134 Az2  5.02398 Dip2  -16.4729 Len2  1.05602 Len3  1.563633e+00
STAT_GEOG  ExpectLat 37.195423 Long -3.699619 Depth 3.404042
TRANSFORM  GLOBAL
QML_OriginQuality  assocPhCt 33  usedPhCt 33  assocStaCt -1  usedStaCt 18  depthPhCt -1  stdErr 0.289593  azGap 63.8338  secAzGap 63.8338  gtLevel -  minDist 6.60077 maxDist 269.838 medDist 143.411
QML_OriginUncertainty  horUnc -1  minHorUnc 0.426979  maxHorUnc 0.89405  azMaxHorUnc 179.652
QML_ConfidenceEllipsoid  semiMajorAxisLength 1.56363  semiMinorAxisLength 0.493134  semiIntermediateAxisLength 1.05602  majorAxisPlunge -71.6443  majorAxisAzimuth 158.049  majorAxisRotation 31.0736
FOCALMECH  Hyp  37.198792 -3.699294 3.295898 Mech  0 0 0 mf  0 nObs -1
PHASE ID Ins Cmp On Pha  FM Date     HrMn   Sec     Err  ErrMag    Coda      Amp       Per  >   TTpred    Res       Weight    StaLoc(X  Y         Z)        SDist    SAzim  RAz  RDip RQual    Tcorr 
UMV15  ?    ?    ? P      ? 20210126 2154   56.3800 GAU  2.00e-02 -1.00e+00  1.34e+11 -1.00e+00 >    1.4232   -0.0026    2.4643   -3.7713   37.2142   -0.5490    0.0594 285.11 285.1 136.4  9    -0.2685
UMV15  ?    ?    ? S      ? 20210126 2154   58.0300 GAU  7.00e-02 -1.00e+00  3.07e+11 -1.00e+00 >    2.3855   -0.0677    2.2495   -3.7713   37.2142   -0.5490    0.0594 285.11 285.1 136.3  9     0.4844
EQTA   ?    ?    ? P      ? 20210126 2154   59.0770 GAU  2.00e-02 -1.00e+00  2.06e+10 -1.00e+00 >    4.0081    0.0444    2.2147   -3.4399   37.2050   -1.1000    0.2067  88.20  88.2  98.5  9    -0.2033
EQTA   ?    ?    ? S      ? 20210126 2155    2.3170 GAU  7.00e-02 -1.00e+00  2.05e+10 -1.00e+00 >    6.7183   -0.0316    2.2875   -3.4399   37.2050   -1.1000    0.2067  88.20  88.2  98.3  9     0.4024
ELGU   ?    ?    ? P      ? 20210126 2155    1.4200 GAU  7.00e-02 -1.00e+00  1.05e+10 -1.00e+00 >    6.4695    0.0000    2.2777   -3.6266   36.8678   -0.7800    0.3360 170.03 170.0  95.4  9    -0.2774
ELGU   ?    ?    ? S      ? 20210126 2155    6.4400 GAU  1.00e-01 -1.00e+00  3.19e+10 -1.00e+00 >   10.8448   -0.5354    0.5910   -3.6266   36.8678   -0.7800    0.3360 170.03 170.0  95.3  9     0.9027
EGOR   ?    ?    ? P      ? 20210126 2155    0.8200 GAU  7.00e-02 -1.00e+00  4.10e+09 -1.00e+00 >    6.5228   -0.1598    1.7381   -4.1096   37.1101   -1.3780    0.3388 254.95 254.9  95.3  9    -0.7709
EGOR   ?    ?    ? S      ? 20210126 2155    7.0300 GAU  1.00e-01 -1.00e+00  4.10e+09 -1.00e+00 >   10.9341    0.1552    1.4132   -4.1096   37.1101   -1.3780    0.3388 254.95 254.9  95.3  9     0.7128
EBER   ?    ?    ? P      ? 20210126 2155    8.7570 GAU  1.00e-01 -1.00e+00  1.09e+09 -1.00e+00 >   13.6764   -0.1065    1.8505   -2.8896   36.8979   -1.6900    0.7129 114.72 114.7  92.8  9    -0.0408
EBER   ?    ?    ? S      ? 20210126 2155   18.8370 GAU  5.00e-01 -1.00e+00  2.64e+09 -1.00e+00 >   22.9256   -0.0290    1.0318   -2.8896   36.8979   -1.6900    0.7129 114.72 114.7  92.8  9     0.7125
E0802  ?    ?    ? P      ? 20210126 2155   11.4900 GAU  7.00e-02 -1.00e+00  7.61e+08 -1.00e+00 >   16.6056   -0.0772    1.8542   -3.3757   38.0258   -0.7700    0.8658  17.13  17.1  92.5  9    -0.2662
E0802  ?    ?    ? S      ? 20210126 2155   24.5400 GAU  5.00e-01 -1.00e+00  1.96e+09 -1.00e+00 >   27.8363    0.2493    0.9094   -3.3757   38.0258   -0.7700    0.8658  17.13  17.1  92.6  9     1.2266
EMIJ   ?    ?    ? P      ? 20210126 2155   13.2700 GAU  1.00e-01 -1.00e+00  3.81e+08 -1.00e+00 >   20.4683   -2.4261    0.0013   -4.7727   36.5645   -0.4700    1.0675 233.87 233.9  92.1  9     0.0000
EMIJ   ?    ?    ? S      ? 20210126 2155   33.1100 GAU  5.00e-01 -1.00e+00  7.58e+08 -1.00e+00 >   34.3118    3.5703    0.1054   -4.7727   36.5645   -0.4700    1.0675 233.87 233.9  92.3  9     0.0000
EADA   ?    ?    ? P      ? 20210126 2155   17.7000 GAU  5.00e-01 -1.00e+00  6.06e+08 -1.00e+00 >   22.8517    0.1596    0.9766   -4.5771   38.1673   -0.5650    1.1919 324.62 324.6  91.9  9    -0.5392
EADA   ?    ?    ? S      ? 20210126 2155   34.9100 GAU  5.00e-01 -1.00e+00  1.45e+09 -1.00e+00 >   38.3073    0.6366    0.6347   -4.5771   38.1673   -0.5650    1.1919 324.62 324.6  92.2  9     0.7382
ENIJ   ?    ?    ? P      ? 20210126 2155   17.6270 GAU  7.00e-02 -1.00e+00  8.52e+08 -1.00e+00 >   23.2313   -0.1120    1.6148   -2.2070   36.9715   -0.4400    1.2120 100.36 100.4  89.8  9    -0.7201
EALB   ?    ?    ? P      ? 20210126 2155   19.1500 GAU  5.00e-01 -1.00e+00  1.79e+08 -1.00e+00 >   25.8919   -0.4062    0.8926   -3.0343   35.9399   -0.0200    1.3675 156.81 156.8  55.3  9    -1.5636
EALB   ?    ?    ? S      ? 20210126 2155   39.4700 GAU  5.00e-01 -1.00e+00  8.18e+08 -1.00e+00 >   43.8988    0.0177    0.9056   -3.0343   35.9399   -0.0200    1.3675 156.81 156.8  85.8  9     0.3257
ELOR   ?    ?    ? P      ? 20210126 2155   26.1100 GAU  1.50e-01 -1.00e+00  6.97e+08 -1.00e+00 >   29.3094   -0.4662    0.9344   -1.7453   37.6391   -0.3950    1.6131  73.57  73.6  45.8  9     2.0389
ELOR   ?    ?    ? S      ? 20210126 2155   50.1100 GAU  1.00e-01 -1.00e+00  1.98e+09 -1.00e+00 >   50.5917    4.2905    0.1119   -1.7453   37.6391   -0.3950    1.6131  73.57  73.6  50.2  9     0.0000
ECAB   ?    ?    ? P      ? 20210126 2155   24.9700 GAU  7.00e-02 -1.00e+00  3.20e+08 -1.00e+00 >   29.3930    1.4648    0.1764   -5.4186   38.0753   -0.5200    1.6192 303.30 303.3  45.8  9    -1.1157
ECAB   ?    ?    ? S      ? 20210126 2155   47.3500 GAU  5.00e-01 -1.00e+00  7.24e+08 -1.00e+00 >   50.7416   -0.1317    0.8628   -5.4186   38.0753   -0.5200    1.6192 303.30 303.3  50.2  9     1.5122
TLOR   ?    ?    ? P      ? 20210126 2155   26.8900 GAU  7.00e-02 -1.00e+00  8.46e+08 -1.00e+00 >   29.9632    1.6989    0.1539   -1.6886   37.6552   -0.3140    1.6607  73.44  73.4  45.8  9     0.0000
EZAR   ?    ?    ? P      ? 20210126 2155   27.8700 GAU  5.00e-01 -1.00e+00  7.59e+08 -1.00e+00 >   30.8866    1.7556    0.1686   -1.6941   37.8750   -1.0200    1.7278  66.35  66.4  45.8  9     0.0000
EZAR   ?    ?    ? S      ? 20210126 2155   52.8100 GAU  5.00e-01 -1.00e+00  2.33e+09 -1.00e+00 >   53.4222    4.1599    0.1121   -1.6941   37.8750   -1.0200    1.7278  66.35  66.4  50.2  9     0.0000
ESPR   ?    ?    ? P      ? 20210126 2155   27.5170 GAU  1.00e-01 -1.00e+00  3.28e+08 -1.00e+00 >   31.2352   -0.0916    1.4061   -5.8562   36.8686   -0.1350    1.7531 259.80 259.8  45.8  9     1.1455
EMUR   ?    ?    ? P      ? 20210126 2155   31.8770 GAU  5.00e-01 -1.00e+00  5.64e+08 -1.00e+00 >   35.3656   -0.4609    0.8232   -1.2405   37.8422   -0.5740    2.0535  70.99  71.0  45.8  9     1.7445
EMUR   ?    ?    ? S      ? 20210126 2156    0.1170 GAU  5.00e-01 -1.00e+00  4.74e+08 -1.00e+00 >   61.4607    3.4285    0.1069   -1.2405   37.8422   -0.5740    2.0535  70.99  71.0  50.2  9     0.0000
ETOB   ?    ?    ? P      ? 20210126 2155   34.2100 GAU  5.00e-01 -1.00e+00  1.93e+08 -1.00e+00 >   37.7863    0.2720    0.8605   -1.5478   38.6447   -0.8550    2.2295  48.91  48.9  45.8  9     0.9238
ETOB   ?    ?    ? S      ? 20210126 2156    5.9690 GAU  5.00e-01 -1.00e+00  6.31e+08 -1.00e+00 >   65.8051    4.9360    0.0745   -1.5478   38.6447   -0.8550    2.2295  48.91  48.9  50.2  9     0.0000
EMIN   ?    ?    ? P      ? 20210126 2155   34.4770 GAU  1.00e-01 -1.00e+00  3.95e+07 -1.00e+00 >   40.4988   -0.1900    1.1956   -6.6724   37.7675   -0.2400    2.4267 284.45 284.5  45.8  9    -1.0597
EMIN   ?    ?    ? S      ? 20210126 2155   43.6170 GAU  5.00e-01 -1.00e+00  3.95e+07 -1.00e+00 >   70.6727  -22.2835    0.0000   -6.6724   37.7675   -0.2400    2.4267 284.45 284.5  50.2  9     0.0000
END_PHASE
END_NLLOC

