NLLOC "/Volumes/LaCie/all_andorra/mini_test/outputs_sh/nll/loc/location.20220201.021011.grid0" "LOCATED" "Location completed."
PUBLIC_ID None
SIGNATURE "surfQuake   obs:/Volumes/LaCie/all_andorra/mini_test/outputs_sh/real/output_directory/nll_input.txt   NLLoc:v7.00.13(17Jan2022)   run:29Feb2024 14h00m36"
COMMENT ""
GRID  391 391 48  5 5 -2  1 1 1 PROB_DENSITY
SEARCH OCTREE nInitial 1000 nEvaluated 18584 smallestNodeSide 0.007617/0.076172/0.091797 oct_tree_integral 1.507012e+00 scatter_volume 1.507012e+00
HYPOCENTER  x 119.536 y 167.056 z 4.56348  OT 10.0556  ix -1 iy -1 iz -1 MAXIMUM_LIKELIHOOD
GEOGRAPHIC  OT 2022 02 01  02 10 10.055630  Lat 42.502366 Long 1.458136 Depth 4.563477
QUALITY  Pmax 5.15128e-05 MFmin 0.993664 MFmax 30.4508 RMS 0.198916 Nphs 20 Gap 60.614 Dist 7.55024 Mamp -9.90 0 Mdur -9.90 0
VPVSRATIO  VpVsRatio 1.76229  Npair 10  Diff 7.21
STATISTICS  ExpectX 119.522428 Y 167.077707 Z 4.379648  CovXX 0.079504 XY -0.0086142 XZ 0.0535175 YY 0.111182 YZ -0.0785039 ZZ 1.27544 EllAz1  80.2697 Dip1  -1.8856 Len1  0.518772 Az2  350.409 Dip2  4.22443 Len2  0.613884 Len3  2.128246e+00
STAT_GEOG  ExpectLat 42.502564 Long 1.457977 Depth 4.379648
TRANSFORM  SIMPLE LatOrig 41.000000  LongOrig 0.000000  RotCW 0.000000
QML_OriginQuality  assocPhCt 20  usedPhCt 20  assocStaCt -1  usedStaCt 10  depthPhCt -1  stdErr 0.198916  azGap 60.614  secAzGap 60.614  gtLevel -  minDist 7.55024 maxDist 68.5052 medDist 34.3586
QML_OriginUncertainty  horUnc -1  minHorUnc 0.421687  maxHorUnc 0.510645  azMaxHorUnc 165.73
QML_ConfidenceEllipsoid  semiMajorAxisLength 2.12825  semiMinorAxisLength 0.518772  semiIntermediateAxisLength 0.613884  majorAxisPlunge 85.3725  majorAxisAzimuth 146.27  majorAxisRotation 155.65
FOCALMECH  Hyp  42.502366 1.458136 4.563477 Mech  0 0 0 mf  0 nObs -1
PHASE ID Ins Cmp On Pha  FM Date     HrMn   Sec     Err  ErrMag    Coda      Amp       Per  >   TTpred    Res       Weight    StaLoc(X  Y         Z)        SDist    SAzim  RAz  RDip RQual    Tcorr 
PAND   ?    ?    ? P      ? 20220201 0210   11.6200 GAU  2.50e-03 -1.00e+00  2.45e+11 -1.00e+00 >    1.6250    0.1198    1.0017  126.7037  169.4279   -1.8400    7.5502  71.69  71.7 130.3  9    -0.1804
PAND   ?    ?    ? S      ? 20220201 0210   13.0200 GAU  2.50e-03 -1.00e+00  4.15e+11 -1.00e+00 >    2.7300    0.1487    1.0017  126.7037  169.4279   -1.8400    7.5502  71.69  71.7 130.3  9     0.0856
ARBS   ?    ?    ? P      ? 20220201 0210   12.0800 GAU  2.50e-03 -1.00e+00  8.05e+07 -1.00e+00 >    1.9557   -0.0953    1.0017  125.8713  159.5085   -2.1450    9.8538 139.99 140.0 124.2  9     0.1641
ARBS   ?    ?    ? S      ? 20220201 0210   13.9800 GAU  7.50e-03 -1.00e+00  1.24e+08 -1.00e+00 >    3.2855   -0.2420    1.0004  125.8713  159.5085   -2.1450    9.8538 139.99 140.0 124.2  9     0.8808
CEST   ?    ?    ? P      ? 20220201 0210   12.8400 GAU  2.50e-03 -1.00e+00  2.53e+08 -1.00e+00 >    3.4258    0.2956    1.0017  102.6474  177.7621   -1.3250   19.9962 302.37 302.4 106.5  9    -0.9370
CEST   ?    ?    ? S      ? 20220201 0210   14.9500 GAU  5.00e-03 -1.00e+00  4.18e+08 -1.00e+00 >    5.7554   -0.0723    1.0012  102.6474  177.7621   -1.3250   19.9962 302.37 302.4 106.5  9    -0.7887
CSOR   ?    ?    ? P      ? 20220201 0210   14.8500 GAU  2.50e-03 -1.00e+00  1.15e+08 -1.00e+00 >    5.0307    0.0975    1.0017   93.0504  152.8297   -1.2270   30.0642 241.76 241.8 101.3  9    -0.3338
CSOR   ?    ?    ? S      ? 20220201 0210   18.7200 GAU  5.00e-03 -1.00e+00  2.44e+08 -1.00e+00 >    8.4515   -0.0132    1.0012   93.0504  152.8297   -1.2270   30.0642 241.76 241.8 101.3  9     0.2260
CORG   ?    ?    ? P      ? 20220201 0210   15.5700 GAU  7.50e-03 -1.00e+00  5.05e+07 -1.00e+00 >    5.3869   -0.1466    1.0004  108.3978  136.6685   -0.7200   32.3641 200.13 200.1  99.8  9     0.2741
CORG   ?    ?    ? S      ? 20220201 0210   20.4000 GAU  2.00e-02 -1.00e+00  5.05e+07 -1.00e+00 >    9.0499   -0.0132    0.9919  108.3978  136.6685   -0.7200   32.3641 200.13 200.1  99.8  9     1.3077
SALF   ?    ?    ? P      ? 20220201 0210   15.4200 GAU  2.50e-03 -1.00e+00  2.26e+10 -1.00e+00 >    6.0380   -0.2644    1.0017   97.0142  195.5921   -0.9030   36.3532 321.72 321.7  99.1  9    -0.4093
SALF   ?    ?    ? S      ? 20220201 0210   19.2300 GAU  7.50e-03 -1.00e+00  9.14e+10 -1.00e+00 >   10.1439    0.3922    1.0004   97.0142  195.5921   -0.9030   36.3532 321.72 321.7  99.1  9    -1.3617
GENF   ?    ?    ? P      ? 20220201 0210   15.8700 GAU  2.50e-03 -1.00e+00  7.34e+07 -1.00e+00 >    6.1007   -0.1304    1.0017  128.2312  202.7420   -0.9600   36.7304  13.69  13.7  99.1  9    -0.1559
GENF   ?    ?    ? S      ? 20220201 0210   20.1700 GAU  7.50e-03 -1.00e+00  7.34e+07 -1.00e+00 >   10.2491   -0.4350    1.0004  128.2312  202.7420   -0.9600   36.7304  13.69  13.7  99.1  9     0.3002
VALC   ?    ?    ? P      ? 20220201 0210   18.3000 GAU  2.50e-03 -1.00e+00  3.23e+07 -1.00e+00 >    8.2212   -0.0246    1.0017  167.5721  154.2956   -1.5600   49.7021 104.88 104.9  97.5  9     0.0478
VALC   ?    ?    ? S      ? 20220201 0210   25.7600 GAU  1.50e-02 -1.00e+00  3.23e+07 -1.00e+00 >   13.8116    0.3121    0.9962  167.5721  154.2956   -1.5600   49.7021 104.88 104.9  97.5  9     1.5807
CARF   ?    ?    ? P      ? 20220201 0210   19.6400 GAU  2.50e-03 -1.00e+00  7.17e+09 -1.00e+00 >    9.4836   -0.0086    1.0017  171.9443  190.6884   -1.2200   57.4905  65.73  65.7  96.3  9     0.1093
CARF   ?    ?    ? S      ? 20220201 0210   27.0300 GAU  5.00e-03 -1.00e+00  1.59e+10 -1.00e+00 >   15.9325    0.1442    1.0012  171.9443  190.6884   -1.2200   57.4905  65.73  65.7  96.3  9     0.8977
FNEB   ?    ?    ? P      ? 20220201 0210   21.6700 GAU  1.00e-02 -1.00e+00  4.15e+09 -1.00e+00 >   11.2720    0.0462    0.9993  171.5685  211.6154   -0.6000   68.5052  49.42  49.4  94.9  9     0.2961
FNEB   ?    ?    ? S      ? 20220201 0210   30.2800 GAU  2.00e-02 -1.00e+00  6.54e+09 -1.00e+00 >   18.9370   -0.1107    0.9919  171.5685  211.6154   -0.6000   68.5052  49.42  49.4  94.9  9     1.3980
END_PHASE
END_NLLOC

