NLLOC "/Volumes/LaCie/all_andorra/mini_test/outputs_sh/nll/loc/location.20220201.020801.grid0" "LOCATED" "Location completed."
PUBLIC_ID None
SIGNATURE "surfQuake   obs:/Volumes/LaCie/all_andorra/mini_test/outputs_sh/real/output_directory/nll_input.txt   NLLoc:v7.00.13(17Jan2022)   run:29Feb2024 14h00m36"
COMMENT ""
GRID  391 391 48  5 5 -2  1 1 1 PROB_DENSITY
SEARCH OCTREE nInitial 1000 nEvaluated 25000 smallestNodeSide 0.015234/0.152344/0.183594 oct_tree_integral 3.270761e+00 scatter_volume 3.226560e+00
HYPOCENTER  x 121.002 y 166.256 z 8.00586  OT 59.2866  ix -1 iy -1 iz -1 MAXIMUM_LIKELIHOOD
GEOGRAPHIC  OT 2022 02 01  02 07 59.286577  Lat 42.495173 Long 1.475853 Depth 8.005859
QUALITY  Pmax 2.58955e-05 MFmin 1.27469 MFmax 22.6383 RMS 0.255444 Nphs 13 Gap 83.2742 Dist 6.52457 Mamp -9.90 0 Mdur -9.90 0
VPVSRATIO  VpVsRatio 1.64639  Npair 6  Diff 3.61
STATISTICS  ExpectX 120.996408 Y 166.254070 Z 7.902331  CovXX 0.339483 XY -0.0615028 XZ 0.476457 YY 0.162652 YZ -0.177984 ZZ 1.56806 EllAz1  183.004 Dip1  -6.10759 Len1  0.70388 Az2  270.893 Dip2  18.9991 Len2  0.789048 Len3  2.487923e+00
STAT_GEOG  ExpectLat 42.495157 Long 1.475783 Depth 7.902331
TRANSFORM  SIMPLE LatOrig 41.000000  LongOrig 0.000000  RotCW 0.000000
QML_OriginQuality  assocPhCt 13  usedPhCt 13  assocStaCt -1  usedStaCt 7  depthPhCt -1  stdErr 0.255444  azGap 83.2742  secAzGap 100.159  gtLevel -  minDist 6.52457 maxDist 37.8951 medDist 31.0091
QML_OriginUncertainty  horUnc -1  minHorUnc 0.574229  maxHorUnc 0.90839  azMaxHorUnc 107.411
QML_ConfidenceEllipsoid  semiMajorAxisLength 2.48792  semiMinorAxisLength 0.70388  semiIntermediateAxisLength 0.789048  majorAxisPlunge 69.9709  majorAxisAzimuth 110.073  majorAxisRotation 23.1221
FOCALMECH  Hyp  42.495173 1.475853 8.005859 Mech  0 0 0 mf  0 nObs -1
PHASE ID Ins Cmp On Pha  FM Date     HrMn   Sec     Err  ErrMag    Coda      Amp       Per  >   TTpred    Res       Weight    StaLoc(X  Y         Z)        SDist    SAzim  RAz  RDip RQual    Tcorr 
PAND   ?    ?    ? P      ? 20220201 0208    1.2700 GAU  2.50e-03 -1.00e+00  2.12e+10 -1.00e+00 >    1.9375    0.2263    1.0038  126.7037  169.4279   -1.8400    6.5246  60.91  60.9 146.6  9    -0.1804
PAND   ?    ?    ? S      ? 20220201 0208    2.6600 GAU  2.50e-03 -1.00e+00  2.12e+10 -1.00e+00 >    3.2550    0.0328    1.0038  126.7037  169.4279   -1.8400    6.5246  60.91  60.9 146.6  9     0.0856
ARBS   ?    ?    ? P      ? 20220201 0208    1.7400 GAU  7.50e-03 -1.00e+00  1.11e+07 -1.00e+00 >    2.1525    0.1368    1.0026  125.8713  159.5085   -2.1450    8.3208 144.18 144.2 140.7  9     0.1641
ARBS   ?    ?    ? S      ? 20220201 0208    3.6300 GAU  2.00e-02 -1.00e+00  9.23e+06 -1.00e+00 >    3.6162   -0.1536    0.9940  125.8713  159.5085   -2.1450    8.3208 144.18 144.2 140.7  9     0.8808
CEST   ?    ?    ? P      ? 20220201 0208    2.5300 GAU  5.00e-03 -1.00e+00  1.04e+07 -1.00e+00 >    3.8762    0.3043    1.0033  102.6474  177.7621   -1.3250   21.6631 302.08 302.1 113.1  9    -0.9370
CEST   ?    ?    ? S      ? 20220201 0208    4.6500 GAU  5.00e-03 -1.00e+00  9.44e+06 -1.00e+00 >    6.5120   -0.3599    1.0033  102.6474  177.7621   -1.3250   21.6631 302.08 302.1 113.1  9    -0.7887
CSOR   ?    ?    ? P      ? 20220201 0208    3.7800 GAU  2.00e-02 -1.00e+00  1.33e+07 -1.00e+00 >    5.3182   -0.4911    0.9940   93.0504  152.8297   -1.2270   31.0091 244.34 244.3 106.7  9    -0.3338
CSOR   ?    ?    ? S      ? 20220201 0208    8.7800 GAU  2.00e-02 -1.00e+00  9.41e+06 -1.00e+00 >    8.9347    0.3327    0.9940   93.0504  152.8297   -1.2270   31.0091 244.34 244.3 106.7  9     0.2260
CORG   ?    ?    ? S      ? 20220201 0208   10.0700 GAU  2.00e-02 -1.00e+00  3.90e+06 -1.00e+00 >    9.5731   -0.0973    0.9940  108.3978  136.6685   -0.7200   32.1602 203.07 203.1 105.4  9     1.3077
GENF   ?    ?    ? P      ? 20220201 0208    5.5400 GAU  7.50e-03 -1.00e+00  4.39e+06 -1.00e+00 >    6.2876    0.1216    1.0026  128.2312  202.7420   -0.9600   37.1954  11.21  11.2 103.8  9    -0.1559
GENF   ?    ?    ? S      ? 20220201 0208    9.8200 GAU  1.00e-02 -1.00e+00  6.33e+06 -1.00e+00 >   10.5632   -0.3301    1.0015  128.2312  202.7420   -0.9600   37.1954  11.21  11.2 103.8  9     0.3002
SALF   ?    ?    ? P      ? 20220201 0208    5.3400 GAU  1.00e-02 -1.00e+00  3.14e+09 -1.00e+00 >    6.3971    0.0656    1.0015   97.0142  195.5921   -0.9030   37.8951 320.73 320.7 103.5  9    -0.4093
SALF   ?    ?    ? S      ? 20220201 0208    8.8800 GAU  1.00e-02 -1.00e+00  5.00e+09 -1.00e+00 >   10.7471    0.2080    1.0015   97.0142  195.5921   -0.9030   37.8951 320.73 320.7 103.5  9    -1.3617
END_PHASE
END_NLLOC

