<?xml version='1.0' encoding='utf-8'?>
<q:quakeml xmlns="http://quakeml.org/xmlns/bed/1.2" xmlns:q="http://quakeml.org/xmlns/quakeml/1.2">
  <eventParameters publicID="smi:local/514d7ad0-7166-4caa-bc96-d71fb3372a69">
    <event publicID="smi:local/ae8dac0d-8703-44b3-9cb0-f7fee327af15">
      <preferredOriginID>smi:local/e085c99a-ab6f-4097-bf74-15fa601a3aae</preferredOriginID>
      <comment>
        <text></text>
      </comment>
      <creationInfo>
        <author>surfQuake   obs:/Volumes/LaCie/all_andorra/mini_test/outputs/real/output_directory/nll_input.txt   NLLoc:v7.00.13(17Jan2022)</author>
        <creationTime>2024-02-24T11:02:15.000000Z</creationTime>
        <version></version>
      </creationInfo>
      <origin publicID="smi:local/e085c99a-ab6f-4097-bf74-15fa601a3aae">
        <time>
          <value>2022-02-01T01:35:16.515166Z</value>
        </time>
        <latitude>
          <value>42.672595</value>
          <uncertainty>0.0065717707136735345</uncertainty>
        </latitude>
        <longitude>
          <value>0.74317</value>
          <uncertainty>0.009651987727350321</uncertainty>
        </longitude>
        <depth>
          <value>203.125</value>
          <uncertainty>2514.362742326572</uncertainty>
          <confidenceLevel>68</confidenceLevel>
        </depth>
        <depthType>from location</depthType>
        <quality>
          <associatedPhaseCount>11</associatedPhaseCount>
          <usedPhaseCount>11</usedPhaseCount>
          <associatedStationCount>-1</associatedStationCount>
          <usedStationCount>6</usedStationCount>
          <depthPhaseCount>-1</depthPhaseCount>
          <standardError>0.659118</standardError>
          <azimuthalGap>299.168</azimuthalGap>
          <secondaryAzimuthalGap>299.168</secondaryAzimuthalGap>
          <groundTruthLevel>-</groundTruthLevel>
          <minimumDistance>0.33731574930478564</minimumDistance>
          <maximumDistance>0.6252371587260909</maximumDistance>
          <medianDistance>0.5138480839386028</medianDistance>
        </quality>
        <comment>
          <text>Note: Depth/Latitude/Longitude errors are calculated from covariance matrix as 1D marginal (Lon/Lat errors as great circle degrees) while OriginUncertainty min/max horizontal errors are calculated from 2D error ellipsoid and are therefore seemingly higher compared to 1D errors. Error estimates can be reconstructed from the following original NonLinLoc error statistics line:
STATISTICS ExpectX 60.867467 Y 186.040187 Z 1.869405  CovXX 1.15187 XY -0.300621 XZ 0.356585 YY 0.533992 YZ -0.0112138 ZZ 6.32202 EllAz1  202.584 Dip1  1.22645 Len1  1.20189 Az2  292.664 Dip2  3.76195 Len2  2.10227 Len3  4.733261e+00</text>
        </comment>
        <creationInfo>
          <author>surfQuake   obs:/Volumes/LaCie/all_andorra/mini_test/outputs/real/output_directory/nll_input.txt   NLLoc:v7.00.13(17Jan2022)</author>
          <creationTime>2024-02-24T11:02:15.000000Z</creationTime>
          <version></version>
        </creationInfo>
        <originUncertainty>
          <preferredDescription>uncertainty ellipse</preferredDescription>
          <minHorizontalUncertainty>973.289</minHorizontalUncertainty>
          <maxHorizontalUncertainty>1711.78</maxHorizontalUncertainty>
          <azimuthMaxHorizontalUncertainty>112.109</azimuthMaxHorizontalUncertainty>
          <confidenceLevel>68.0</confidenceLevel>
        </originUncertainty>
        <arrival publicID="smi:local/e1c54d1d-7d98-4679-96ec-c4b26256dae2">
          <pickID>smi:local/3ce63714-84d4-4ee7-acbf-59dc186772be</pickID>
          <phase>P</phase>
          <azimuth>75.2</azimuth>
          <takeoffAngle>
            <value>92.4</value>
          </takeoffAngle>
          <timeResidual>-0.4996</timeResidual>
          <timeWeight>1.005</timeWeight>
        </arrival>
        <arrival publicID="smi:local/fe17833b-8a33-472b-9234-657b8f16ecec">
          <pickID>smi:local/95eb6631-71b1-4e45-bb70-1de017262744</pickID>
          <phase>S</phase>
          <azimuth>75.2</azimuth>
          <takeoffAngle>
            <value>92.4</value>
          </takeoffAngle>
          <timeResidual>0.1854</timeResidual>
          <timeWeight>1.0058</timeWeight>
        </arrival>
        <arrival publicID="smi:local/00cc45f3-ca46-4599-b4e2-566b8ebf12b5">
          <pickID>smi:local/05be57be-01ce-4561-b1d9-7a6fe521df6b</pickID>
          <phase>P</phase>
          <azimuth>101.1</azimuth>
          <takeoffAngle>
            <value>92.8</value>
          </takeoffAngle>
          <timeResidual>-0.6513</timeResidual>
          <timeWeight>1.0008</timeWeight>
        </arrival>
        <arrival publicID="smi:local/74a3093a-a796-4347-9699-25db942ac03d">
          <pickID>smi:local/d434cdc9-cc89-4d5b-a99b-de5c27dc4b1f</pickID>
          <phase>S</phase>
          <azimuth>101.1</azimuth>
          <takeoffAngle>
            <value>92.8</value>
          </takeoffAngle>
          <timeResidual>-0.5756</timeResidual>
          <timeWeight>1.005</timeWeight>
        </arrival>
        <arrival publicID="smi:local/89ae9485-5deb-4c33-960f-710f96d6175f">
          <pickID>smi:local/8e159cd0-d7ab-4b58-85da-623b677d59cf</pickID>
          <phase>P</phase>
          <azimuth>135.8</azimuth>
          <takeoffAngle>
            <value>92.5</value>
          </takeoffAngle>
          <timeResidual>0.6407</timeResidual>
          <timeWeight>0.9964</timeWeight>
        </arrival>
        <arrival publicID="smi:local/8b6d7910-fb9f-4b09-a9ff-e411d566ab3a">
          <pickID>smi:local/2a245101-206f-48d2-a7e5-56d6ebab5df0</pickID>
          <phase>S</phase>
          <azimuth>135.8</azimuth>
          <takeoffAngle>
            <value>92.5</value>
          </takeoffAngle>
          <timeResidual>-0.2032</timeResidual>
          <timeWeight>1.005</timeWeight>
        </arrival>
        <arrival publicID="smi:local/07fbf707-7095-4964-857e-c93cd648dd41">
          <pickID>smi:local/9f03257b-995f-46a3-b343-22e2a55025b7</pickID>
          <phase>P</phase>
          <azimuth>104.1</azimuth>
          <takeoffAngle>
            <value>92.4</value>
          </takeoffAngle>
          <timeResidual>1.5094</timeResidual>
          <timeWeight>0.9964</timeWeight>
        </arrival>
        <arrival publicID="smi:local/cb9bf19e-5180-4513-92f6-b59d035da8cc">
          <pickID>smi:local/03cdb5ce-739d-4535-b72e-8dd2d83cb4a2</pickID>
          <phase>S</phase>
          <azimuth>104.1</azimuth>
          <takeoffAngle>
            <value>92.4</value>
          </takeoffAngle>
          <timeResidual>0.6038</timeResidual>
          <timeWeight>0.9964</timeWeight>
        </arrival>
        <arrival publicID="smi:local/69a7872a-1291-46f9-8f36-2c1bf00bd998">
          <pickID>smi:local/25d7e6ba-f75f-4144-9b88-8c8772aa789e</pickID>
          <phase>P</phase>
          <azimuth>136.0</azimuth>
          <takeoffAngle>
            <value>91.3</value>
          </takeoffAngle>
          <timeResidual>-0.7893</timeResidual>
          <timeWeight>0.9964</timeWeight>
        </arrival>
        <arrival publicID="smi:local/49334fbe-bb21-4dab-b6c9-513a591d7394">
          <pickID>smi:local/30d08701-142e-463c-9ba1-a054a184b1cb</pickID>
          <phase>S</phase>
          <azimuth>136.0</azimuth>
          <takeoffAngle>
            <value>91.3</value>
          </takeoffAngle>
          <timeResidual>-0.0353</timeResidual>
          <timeWeight>0.9964</timeWeight>
        </arrival>
        <arrival publicID="smi:local/f6126a2f-d43e-40b1-a372-84013d8dbb45">
          <pickID>smi:local/3114b833-a334-44bf-9846-10e22c12e282</pickID>
          <phase>S</phase>
          <azimuth>76.1</azimuth>
          <takeoffAngle>
            <value>91.6</value>
          </takeoffAngle>
          <timeResidual>-0.1729</timeResidual>
          <timeWeight>0.9964</timeWeight>
        </arrival>
      </origin>
      <magnitude publicID="smi:local/819c5bb3-4aa2-45e9-bad9-8cc07dd274b2">
        <mag>
          <value>0.25</value>
          <uncertainty>0.0</uncertainty>
        </mag>
        <type>ML</type>
      </magnitude>
      <magnitude publicID="smi:local/8f422002-530c-495b-90b5-02cd5b3f2e55">
        <mag>
          <value>1.32</value>
          <uncertainty>0.0</uncertainty>
        </mag>
        <type>Mw</type>
      </magnitude>
      <pick publicID="smi:local/3ce63714-84d4-4ee7-acbf-59dc186772be">
        <time>
          <value>2022-02-01T01:35:22.170000Z</value>
          <uncertainty>0.0075</uncertainty>
        </time>
        <waveformID networkCode="" stationCode="SALF"></waveformID>
        <phaseHint>P</phaseHint>
      </pick>
      <pick publicID="smi:local/95eb6631-71b1-4e45-bb70-1de017262744">
        <time>
          <value>2022-02-01T01:35:27.040000Z</value>
          <uncertainty>0.005</uncertainty>
        </time>
        <waveformID networkCode="" stationCode="SALF"></waveformID>
        <phaseHint>S</phaseHint>
      </pick>
      <pick publicID="smi:local/05be57be-01ce-4561-b1d9-7a6fe521df6b">
        <time>
          <value>2022-02-01T01:35:22.870000Z</value>
          <uncertainty>0.015</uncertainty>
        </time>
        <waveformID networkCode="" stationCode="CEST"></waveformID>
        <phaseHint>P</phaseHint>
      </pick>
      <pick publicID="smi:local/d434cdc9-cc89-4d5b-a99b-de5c27dc4b1f">
        <time>
          <value>2022-02-01T01:35:27.710000Z</value>
          <uncertainty>0.0075</uncertainty>
        </time>
        <waveformID networkCode="" stationCode="CEST"></waveformID>
        <phaseHint>S</phaseHint>
      </pick>
      <pick publicID="smi:local/8e159cd0-d7ab-4b58-85da-623b677d59cf">
        <time>
          <value>2022-02-01T01:35:24.750000Z</value>
          <uncertainty>0.02</uncertainty>
        </time>
        <waveformID networkCode="" stationCode="CSOR"></waveformID>
        <phaseHint>P</phaseHint>
      </pick>
      <pick publicID="smi:local/2a245101-206f-48d2-a7e5-56d6ebab5df0">
        <time>
          <value>2022-02-01T01:35:29.070000Z</value>
          <uncertainty>0.0075</uncertainty>
        </time>
        <waveformID networkCode="" stationCode="CSOR"></waveformID>
        <phaseHint>S</phaseHint>
      </pick>
      <pick publicID="smi:local/9f03257b-995f-46a3-b343-22e2a55025b7">
        <time>
          <value>2022-02-01T01:35:29.180000Z</value>
          <uncertainty>0.02</uncertainty>
        </time>
        <waveformID networkCode="" stationCode="PAND"></waveformID>
        <phaseHint>P</phaseHint>
      </pick>
      <pick publicID="smi:local/03cdb5ce-739d-4535-b72e-8dd2d83cb4a2">
        <time>
          <value>2022-02-01T01:35:35.860000Z</value>
          <uncertainty>0.02</uncertainty>
        </time>
        <waveformID networkCode="" stationCode="PAND"></waveformID>
        <phaseHint>S</phaseHint>
      </pick>
      <pick publicID="smi:local/25d7e6ba-f75f-4144-9b88-8c8772aa789e">
        <time>
          <value>2022-02-01T01:35:26.970000Z</value>
          <uncertainty>0.02</uncertainty>
        </time>
        <waveformID networkCode="" stationCode="CORG"></waveformID>
        <phaseHint>P</phaseHint>
      </pick>
      <pick publicID="smi:local/30d08701-142e-463c-9ba1-a054a184b1cb">
        <time>
          <value>2022-02-01T01:35:35.370000Z</value>
          <uncertainty>0.02</uncertainty>
        </time>
        <waveformID networkCode="" stationCode="CORG"></waveformID>
        <phaseHint>S</phaseHint>
      </pick>
      <pick publicID="smi:local/3114b833-a334-44bf-9846-10e22c12e282">
        <time>
          <value>2022-02-01T01:35:36.270000Z</value>
          <uncertainty>0.02</uncertainty>
        </time>
        <waveformID networkCode="" stationCode="GENF"></waveformID>
        <phaseHint>S</phaseHint>
      </pick>
    </event>
    <event publicID="smi:local/d3eba680-15be-4a09-8106-13dcd4c61f88">
      <preferredOriginID>smi:local/6a79fc39-bc4b-4ffb-99cf-43b13470ff5b</preferredOriginID>
      <comment>
        <text></text>
      </comment>
      <creationInfo>
        <author>surfQuake   obs:/Volumes/LaCie/all_andorra/mini_test/outputs/real/output_directory/nll_input.txt   NLLoc:v7.00.13(17Jan2022)</author>
        <creationTime>2024-02-24T11:02:15.000000Z</creationTime>
        <version></version>
      </creationInfo>
      <origin publicID="smi:local/6a79fc39-bc4b-4ffb-99cf-43b13470ff5b">
        <time>
          <value>2022-02-01T02:03:00.876284Z</value>
        </time>
        <latitude>
          <value>42.516751</value>
          <uncertainty>0.0027741761195594567</uncertainty>
        </latitude>
        <longitude>
          <value>1.437189</value>
          <uncertainty>0.0023774379293948432</uncertainty>
        </longitude>
        <depth>
          <value>-1954.102</value>
          <uncertainty>1044.4663709282363</uncertainty>
          <confidenceLevel>68</confidenceLevel>
        </depth>
        <depthType>from location</depthType>
        <quality>
          <associatedPhaseCount>20</associatedPhaseCount>
          <usedPhaseCount>20</usedPhaseCount>
          <associatedStationCount>-1</associatedStationCount>
          <usedStationCount>10</usedStationCount>
          <depthPhaseCount>-1</depthPhaseCount>
          <standardError>0.838613</standardError>
          <azimuthalGap>63.6253</azimuthalGap>
          <secondaryAzimuthalGap>63.6253</secondaryAzimuthalGap>
          <groundTruthLevel>-</groundTruthLevel>
          <minimumDistance>0.08045007330770831</minimumDistance>
          <maximumDistance>0.6190012627106505</maximumDistance>
          <medianDistance>0.3028762284061278</medianDistance>
        </quality>
        <comment>
          <text>Note: Depth/Latitude/Longitude errors are calculated from covariance matrix as 1D marginal (Lon/Lat errors as great circle degrees) while OriginUncertainty min/max horizontal errors are calculated from 2D error ellipsoid and are therefore seemingly higher compared to 1D errors. Error estimates can be reconstructed from the following original NonLinLoc error statistics line:
STATISTICS ExpectX 117.822338 Y 168.610765 Z -0.639524  CovXX 0.0698857 XY -0.00349341 XZ 0.018555 YY 0.0951564 YZ -0.0317455 ZZ 1.09091 EllAz1  83.3351 Dip1  -0.826832 Len1  0.494271 Az2  353.363 Dip2  1.93575 Len2  0.577515 Len3  1.963591e+00</text>
        </comment>
        <creationInfo>
          <author>surfQuake   obs:/Volumes/LaCie/all_andorra/mini_test/outputs/real/output_directory/nll_input.txt   NLLoc:v7.00.13(17Jan2022)</author>
          <creationTime>2024-02-24T11:02:15.000000Z</creationTime>
          <version></version>
        </creationInfo>
        <originUncertainty>
          <preferredDescription>uncertainty ellipse</preferredDescription>
          <minHorizontalUncertainty>399.55800000000005</minHorizontalUncertainty>
          <maxHorizontalUncertainty>468.988</maxHorizontalUncertainty>
          <azimuthMaxHorizontalUncertainty>172.272</azimuthMaxHorizontalUncertainty>
          <confidenceLevel>68.0</confidenceLevel>
        </originUncertainty>
        <arrival publicID="smi:local/2e654229-6083-4881-a796-d655569c51bb">
          <pickID>smi:local/6542f78c-c490-4848-9322-13302a93f1f4</pickID>
          <phase>P</phase>
          <azimuth>85.0</azimuth>
          <takeoffAngle>
            <value>89.3</value>
          </takeoffAngle>
          <timeResidual>-0.4133</timeResidual>
          <timeWeight>1.0028</timeWeight>
        </arrival>
        <arrival publicID="smi:local/51df4608-a95c-4f20-9b9c-397200dd975a">
          <pickID>smi:local/04d1c07e-a6ba-4519-85b0-a88c5807f7c1</pickID>
          <phase>S</phase>
          <azimuth>85.0</azimuth>
          <takeoffAngle>
            <value>89.3</value>
          </takeoffAngle>
          <timeResidual>0.0191</timeResidual>
          <timeWeight>1.0023</timeWeight>
        </arrival>
        <arrival publicID="smi:local/c3e87022-55e8-4fbe-8f40-bcebeaab0cd0">
          <pickID>smi:local/4a7a30aa-1fe9-4901-a5ec-b28136407dc7</pickID>
          <phase>P</phase>
          <azimuth>138.5</azimuth>
          <takeoffAngle>
            <value>90.9</value>
          </takeoffAngle>
          <timeResidual>-0.4975</timeResidual>
          <timeWeight>1.0028</timeWeight>
        </arrival>
        <arrival publicID="smi:local/bdeae56a-7abf-4b85-8aa8-4a7f019d16a6">
          <pickID>smi:local/db64553b-da05-4835-80d1-9bbe66f28ffb</pickID>
          <phase>S</phase>
          <azimuth>138.5</azimuth>
          <takeoffAngle>
            <value>90.9</value>
          </takeoffAngle>
          <timeResidual>0.2716</timeResidual>
          <timeWeight>0.993</timeWeight>
        </arrival>
        <arrival publicID="smi:local/2b4037e5-c17e-42ed-822f-d0e8b35d52d3">
          <pickID>smi:local/3a00015d-3674-4175-8a58-b95c9803af5d</pickID>
          <phase>P</phase>
          <azimuth>301.0</azimuth>
          <takeoffAngle>
            <value>87.6</value>
          </takeoffAngle>
          <timeResidual>-0.5361</timeResidual>
          <timeWeight>1.0023</timeWeight>
        </arrival>
        <arrival publicID="smi:local/d81dd86f-4d72-4148-8aff-f940211a6176">
          <pickID>smi:local/4649f478-53e0-49a3-8f17-43028b137204</pickID>
          <phase>S</phase>
          <azimuth>301.0</azimuth>
          <takeoffAngle>
            <value>87.6</value>
          </takeoffAngle>
          <timeResidual>-0.388</timeResidual>
          <timeWeight>1.0023</timeWeight>
        </arrival>
        <arrival publicID="smi:local/5462db87-fa25-491f-8f8e-0dd5ad48d447">
          <pickID>smi:local/33906eb7-88bd-4b84-9e40-d62fcd07dde2</pickID>
          <phase>P</phase>
          <azimuth>237.4</azimuth>
          <takeoffAngle>
            <value>88.0</value>
          </takeoffAngle>
          <timeResidual>-0.4943</timeResidual>
          <timeWeight>1.0028</timeWeight>
        </arrival>
        <arrival publicID="smi:local/8c5be4c0-cbf7-452d-bdab-afc806fe4c8f">
          <pickID>smi:local/455a9e41-67e7-4696-b325-42a22ee94d53</pickID>
          <phase>S</phase>
          <azimuth>237.4</azimuth>
          <takeoffAngle>
            <value>88.0</value>
          </takeoffAngle>
          <timeResidual>0.0995</timeResidual>
          <timeWeight>1.0023</timeWeight>
        </arrival>
        <arrival publicID="smi:local/a3e20eee-0a3e-4f70-a0ef-fd1628b073c8">
          <pickID>smi:local/6c3467ae-582e-4d54-9c71-c1b637fc02d5</pickID>
          <phase>P</phase>
          <azimuth>196.4</azimuth>
          <takeoffAngle>
            <value>87.1</value>
          </takeoffAngle>
          <timeResidual>-0.5379</timeResidual>
          <timeWeight>1.0023</timeWeight>
        </arrival>
        <arrival publicID="smi:local/fceac0a2-46a3-4a2d-b385-31f7d38f2ed4">
          <pickID>smi:local/a576bbeb-2a8f-49b7-a7fc-ad73fd098857</pickID>
          <phase>S</phase>
          <azimuth>196.4</azimuth>
          <takeoffAngle>
            <value>87.1</value>
          </takeoffAngle>
          <timeResidual>0.9114</timeResidual>
          <timeWeight>1.0004</timeWeight>
        </arrival>
        <arrival publicID="smi:local/56633fad-279e-4996-8fec-1b969bbafdf0">
          <pickID>smi:local/9dae5c6a-72a4-47e4-92b3-345fc45c94c9</pickID>
          <phase>P</phase>
          <azimuth>322.4</azimuth>
          <takeoffAngle>
            <value>87.5</value>
          </takeoffAngle>
          <timeResidual>3.0018</timeResidual>
          <timeWeight>0.993</timeWeight>
        </arrival>
        <arrival publicID="smi:local/2ff06ff1-1fb9-4bc4-964c-f4b4733695bc">
          <pickID>smi:local/e61d2686-bdd7-41e8-b473-e45489b69bcb</pickID>
          <phase>S</phase>
          <azimuth>322.4</azimuth>
          <takeoffAngle>
            <value>87.5</value>
          </takeoffAngle>
          <timeResidual>-0.6239</timeResidual>
          <timeWeight>1.0004</timeWeight>
        </arrival>
        <arrival publicID="smi:local/15699ad0-0a3a-4f33-b1ee-87a96a19dda2">
          <pickID>smi:local/578f4819-8b74-40db-8abc-0c4e42d44d36</pickID>
