NLLOC "/Volumes/LaCie/test_surfquake/Granada/outputs/nll/loc/location.20210126.213633.grid0" "LOCATED" "Location completed."
PUBLIC_ID None
SIGNATURE "surfQuake   obs:/Volumes/LaCie/test_surfquake/Granada/outputs/real/output_directory/nll_input.txt   NLLoc:v7.00.13(17Jan2022)   run:03Feb2025 11h52m58"
COMMENT ""
GRID  361 181 601  -180 -90 0  1 1 1 PROB_DENSITY
SEARCH OCTREE nInitial 17628 nEvaluated 50012 smallestNodeSide 0.250590/0.203604/0.048828 oct_tree_integral 7.886195e-01 scatter_volume 7.886195e-01
HYPOCENTER  x -3.69479 y 37.1878 z 5.00488  OT 32.5582  ix -1 iy -1 iz -1 MAXIMUM_LIKELIHOOD
GEOGRAPHIC  OT 2021 01 26  21 36 32.558214  Lat 37.187805 Long -3.694787 Depth 5.004883
QUALITY  Pmax 9.76427e+93 MFmin 33.748 MFmax 34.1295 RMS 0.381873 Nphs 34 Gap 64.137 Dist 0.0664007 Mamp -9.90 0 Mdur -9.90 0
VPVSRATIO  VpVsRatio 1.84905  Npair 16  Diff 36.14
STATISTICS  ExpectX -3.697602 Y 37.187493 Z 4.990056  CovXX 0.108402 XY 0.0255554 XZ -0.0307639 YY 0.150952 YZ 0.0564119 ZZ 0.262605 EllAz1  303.319 Dip1  -17.2627 Len1  0.531954 Az2  217.565 Dip2  13.4017 Len2  0.73647 Len3  1.008540e+00
STAT_GEOG  ExpectLat 37.187493 Long -3.697602 Depth 4.990056
TRANSFORM  GLOBAL
QML_OriginQuality  assocPhCt 34  usedPhCt 34  assocStaCt -1  usedStaCt 18  depthPhCt -1  stdErr 0.381873  azGap 64.137  secAzGap 64.137  gtLevel -  minDist 7.38344 maxDist 270.532 medDist 142.468
QML_OriginUncertainty  horUnc -1  minHorUnc 0.470933  maxHorUnc 0.612158  azMaxHorUnc 25.1111
QML_ConfidenceEllipsoid  semiMajorAxisLength 1.00854  semiMinorAxisLength 0.531954  semiIntermediateAxisLength 0.73647  majorAxisPlunge -67.8804  majorAxisAzimuth 163.453  majorAxisRotation 60.7703
FOCALMECH  Hyp  37.187805 -3.694787 5.004883 Mech  0 0 0 mf  0 nObs -1
PHASE ID Ins Cmp On Pha  FM Date     HrMn   Sec     Err  ErrMag    Coda      Amp       Per  >   TTpred    Res       Weight    StaLoc(X  Y         Z)        SDist    SAzim  RAz  RDip RQual    Tcorr 
UMV15  ?    ?    ? P      ? 20210126 2136   33.9800 GAU  2.00e-02 -1.00e+00  1.49e+11 -1.00e+00 >    1.6855    0.0047    2.4822   -3.7713   37.2142   -0.5490    0.0664 293.49 293.5 136.4  9    -0.2685
UMV15  ?    ?    ? S      ? 20210126 2136   35.8900 GAU  7.00e-02 -1.00e+00  5.19e+11 -1.00e+00 >    2.8255    0.0219    2.3032   -3.7713   37.2142   -0.5490    0.0664 293.49 293.5 136.4  9     0.4844
EQTA   ?    ?    ? P      ? 20210126 2136   36.3270 GAU  2.00e-02 -1.00e+00  5.15e+09 -1.00e+00 >    4.0006   -0.0285    2.3398   -3.4399   37.2050   -1.1000    0.2038  85.08  85.1 102.9  9    -0.2033
EQTA   ?    ?    ? S      ? 20210126 2136   39.9970 GAU  1.50e-01 -1.00e+00  7.57e+09 -1.00e+00 >    6.7051    0.3313    1.0585   -3.4399   37.2050   -1.1000    0.2038  85.08  85.1 102.7  9     0.4024
ELGU   ?    ?    ? P      ? 20210126 2136   38.6100 GAU  7.00e-02 -1.00e+00  8.91e+09 -1.00e+00 >    6.2816    0.0476    2.2183   -3.6266   36.8678   -0.7800    0.3246 170.33 170.3  98.3  9    -0.2774
ELGU   ?    ?    ? S      ? 20210126 2136   44.2500 GAU  5.00e-01 -1.00e+00  1.92e+10 -1.00e+00 >   10.5294    0.2597    0.9559   -3.6266   36.8678   -0.7800    0.3246 170.33 170.3  98.2  9     0.9027
EGOR   ?    ?    ? P      ? 20210126 2136   38.3700 GAU  4.00e-02 -1.00e+00  8.66e+09 -1.00e+00 >    6.5674    0.0153    2.3615   -4.1096   37.1101   -1.3780    0.3396 256.90 256.9  98.0  9    -0.7709
EGOR   ?    ?    ? S      ? 20210126 2136   44.1800 GAU  5.00e-01 -1.00e+00  8.66e+09 -1.00e+00 >   11.0085   -0.0995    0.9789   -4.1096   37.1101   -1.3780    0.3396 256.90 256.9  97.9  9     0.7128
EBER   ?    ?    ? P      ? 20210126 2136   46.0670 GAU  7.00e-02 -1.00e+00  4.99e+08 -1.00e+00 >   13.5390    0.0106    1.9259   -2.8896   36.8979   -1.6900    0.7050 114.04 114.0  94.0  9    -0.0408
E0802  ?    ?    ? P      ? 20210126 2136   49.2900 GAU  4.00e-02 -1.00e+00  5.97e+08 -1.00e+00 >   16.7959    0.2021    1.5178   -3.3757   38.0258   -0.7700    0.8753  16.69  16.7  93.4  9    -0.2662
E0802  ?    ?    ? S      ? 20210126 2137    1.9000 GAU  1.00e-01 -1.00e+00  1.59e+09 -1.00e+00 >   28.1551   -0.0399    1.3849   -3.3757   38.0258   -0.7700    0.8753  16.69  16.7  93.5  9     1.2266
EMIJ   ?    ?    ? P      ? 20210126 2136   50.3700 GAU  1.00e-01 -1.00e+00  4.86e+08 -1.00e+00 >   20.4076   -2.5959    0.0008   -4.7727   36.5645   -0.4700    1.0639 234.46 234.5  93.0  9     0.0000
EMIJ   ?    ?    ? S      ? 20210126 2137   11.4700 GAU  5.00e-01 -1.00e+00  1.20e+09 -1.00e+00 >   34.2093    4.7025    0.1091   -4.7727   36.5645   -0.4700    1.0639 234.46 234.5  93.0  9     0.0000
EADA   ?    ?    ? P      ? 20210126 2136   55.0700 GAU  1.50e-01 -1.00e+00  8.13e+08 -1.00e+00 >   23.0652   -0.0142    1.4653   -4.5771   38.1673   -0.5650    1.2029 324.78 324.8  91.4  9    -0.5392
EADA   ?    ?    ? S      ? 20210126 2137   12.0900 GAU  5.00e-01 -1.00e+00  1.63e+09 -1.00e+00 >   38.6700    0.1236    0.8643   -4.5771   38.1673   -0.5650    1.2029 324.78 324.8  92.8  9     0.7382
ENIJ   ?    ?    ? P      ? 20210126 2136   55.0770 GAU  7.00e-02 -1.00e+00  3.99e+08 -1.00e+00 >   23.1288    0.1100    1.5587   -2.2070   36.9715   -0.4400    1.2065  99.88  99.9  89.7  9    -0.7201
ENIJ   ?    ?    ? S      ? 20210126 2137   19.0570 GAU  5.00e-01 -1.00e+00  4.95e+08 -1.00e+00 >   38.7845    7.7143    0.0513   -2.2070   36.9715   -0.4400    1.2065  99.88  99.9  92.8  9     0.0000
EALB   ?    ?    ? P      ? 20210126 2136   56.7500 GAU  7.00e-02 -1.00e+00  1.15e+08 -1.00e+00 >   25.5678    0.1876    1.4046   -3.0343   35.9399   -0.0200    1.3560 156.77 156.8  45.8  9    -1.5636
EALB   ?    ?    ? S      ? 20210126 2137   15.7000 GAU  5.00e-01 -1.00e+00  2.93e+08 -1.00e+00 >   43.4564   -0.6403    0.5341   -3.0343   35.9399   -0.0200    1.3560 156.77 156.8  76.4  9     0.3257
ELOR   ?    ?    ? P      ? 20210126 2137    4.2500 GAU  5.00e-01 -1.00e+00  3.13e+08 -1.00e+00 >   29.1002    0.5527    0.7010   -1.7453   37.6391   -0.3950    1.6128  73.16  73.2  45.8  9     2.0389
ELOR   ?    ?    ? S      ? 20210126 2137   27.3900 GAU  5.00e-01 -1.00e+00  5.93e+08 -1.00e+00 >   50.2683    4.5635    0.1016   -1.7453   37.6391   -0.3950    1.6128  73.16  73.2  50.2  9     0.0000
ECAB   ?    ?    ? P      ? 20210126 2137    0.6190 GAU  1.00e-01 -1.00e+00  3.12e+08 -1.00e+00 >   29.3123   -0.1358    1.2492   -5.4186   38.0753   -0.5200    1.6283 303.55 303.6  45.8  9    -1.1157
ECAB   ?    ?    ? S      ? 20210126 2137   24.6190 GAU  1.00e-01 -1.00e+00  1.57e+09 -1.00e+00 >   50.6489   -0.1004    0.9732   -5.4186   38.0753   -0.5200    1.6283 303.55 303.6  50.2  9     1.5122
TLOR   ?    ?    ? P      ? 20210126 2137    4.2200 GAU  1.00e-01 -1.00e+00  4.20e+08 -1.00e+00 >   29.7544    1.9074    0.0694   -1.6886   37.6552   -0.3140    1.6604  73.04  73.0  45.8  9     0.0000
TLOR   ?    ?    ? S      ? 20210126 2137   29.7100 GAU  5.00e-01 -1.00e+00  9.12e+08 -1.00e+00 >   51.4424    5.7094    0.0991   -1.6886   37.6552   -0.3140    1.6604  73.04  73.0  50.2  9     0.0000
EZAR   ?    ?    ? P      ? 20210126 2137    5.3100 GAU  1.00e-01 -1.00e+00  2.97e+08 -1.00e+00 >   30.6973    2.0545    0.0661   -1.6941   37.8750   -1.0200    1.7290  65.97  66.0  45.8  9     0.0000
EZAR   ?    ?    ? S      ? 20210126 2137   30.5100 GAU  5.00e-01 -1.00e+00  7.31e+08 -1.00e+00 >   53.1347    4.8171    0.1095   -1.6941   37.8750   -1.0200    1.7290  65.97  66.0  50.2  9     0.0000
ESPR   ?    ?    ? P      ? 20210126 2137    4.7070 GAU  1.00e-01 -1.00e+00  3.38e+08 -1.00e+00 >   31.0524   -0.0491    1.3148   -5.8562   36.8686   -0.1350    1.7548 260.17 260.2  45.8  9     1.1455
ESPR   ?    ?    ? S      ? 20210126 2137   33.7170 GAU  5.00e-01 -1.00e+00  1.33e+09 -1.00e+00 >   53.7719    7.3869    0.0623   -5.8562   36.8686   -0.1350    1.7548 260.17 260.2  50.2  9     0.0000
EMUR   ?    ?    ? P      ? 20210126 2137    9.6970 GAU  7.00e-02 -1.00e+00  2.91e+08 -1.00e+00 >   35.1634    0.2309    1.1828   -1.2405   37.8422   -0.5740    2.0537  70.68  70.7  45.8  9     1.7445
ETOB   ?    ?    ? P      ? 20210126 2137   11.2500 GAU  7.00e-02 -1.00e+00  1.21e+08 -1.00e+00 >   37.6436    0.1244    1.2160   -1.5478   38.6447   -0.8550    2.2340  48.64  48.6  45.8  9     0.9238
ETOB   ?    ?    ? S      ? 20210126 2137   43.1490 GAU  5.00e-01 -1.00e+00  2.50e+08 -1.00e+00 >   65.6011    4.9897    0.1094   -1.5478   38.6447   -0.8550    2.2340  48.64  48.6  50.2  9     0.0000
EMIN   ?    ?    ? P      ? 20210126 2137   11.8170 GAU  4.00e-02 -1.00e+00  6.82e+07 -1.00e+00 >   40.3794   -0.0610    1.1536   -6.6724   37.7675   -0.2400    2.4330 284.69 284.7  45.8  9    -1.0597
EMIN   ?    ?    ? S      ? 20210126 2137   49.8670 GAU  5.00e-01 -1.00e+00  3.47e+08 -1.00e+00 >   70.5105    6.7983    0.0770   -6.6724   37.7675   -0.2400    2.4330 284.69 284.7  50.2  9     0.0000
END_PHASE
END_NLLOC

