NLLOC "/Volumes/LaCie/test_surfquake/Granada/outputs/nll/loc/location.20210126.214419.grid0" "LOCATED" "Location completed."
PUBLIC_ID None
SIGNATURE "surfQuake   obs:/Volumes/LaCie/test_surfquake/Granada/outputs/real/output_directory/nll_input.txt   NLLoc:v7.00.13(17Jan2022)   run:03Feb2025 11h52m59"
COMMENT ""
GRID  361 181 601  -180 -90 0  1 1 1 PROB_DENSITY
SEARCH OCTREE nInitial 17628 nEvaluated 50004 smallestNodeSide 0.250590/0.203604/0.048828 oct_tree_integral 8.046258e-01 scatter_volume 8.046258e-01
HYPOCENTER  x -3.69479 y 37.1896 z 5.93262  OT 18.1571  ix -1 iy -1 iz -1 MAXIMUM_LIKELIHOOD
GEOGRAPHIC  OT 2021 01 26  21 44 18.157058  Lat 37.189636 Long -3.694787 Depth 5.932617
QUALITY  Pmax 7.68537e+86 MFmin 31.983 MFmax 32.2985 RMS 0.389213 Nphs 32 Gap 64.0028 Dist 0.0656924 Mamp -9.90 0 Mdur -9.90 0
VPVSRATIO  VpVsRatio 1.83512  Npair 14  Diff 36.18
STATISTICS  ExpectX -3.695360 Y 37.190048 Z 5.962261  CovXX 0.0723384 XY -0.00635213 XZ -0.0325396 YY 0.243504 YZ 0.0474802 ZZ 0.221755 EllAz1  271.238 Dip1  -12.1198 Len1  0.480798 Az2  14.9172 Dip2  -47.7592 Len2  0.813991 Len3  1.001984e+00
STAT_GEOG  ExpectLat 37.190048 Long -3.695360 Depth 5.962261
TRANSFORM  GLOBAL
QML_OriginQuality  assocPhCt 32  usedPhCt 32  assocStaCt -1  usedStaCt 18  depthPhCt -1  stdErr 0.389213  azGap 64.0028  secAzGap 64.0028  gtLevel -  minDist 7.30467 maxDist 270.481 medDist 142.579
QML_OriginUncertainty  horUnc -1  minHorUnc 0.407231  maxHorUnc 0.748733  azMaxHorUnc 177.878
QML_ConfidenceEllipsoid  semiMajorAxisLength 1.00198  semiMinorAxisLength 0.480798  semiIntermediateAxisLength 0.813991  majorAxisPlunge -39.689  majorAxisAzimuth 170.972  majorAxisRotation 303.022
FOCALMECH  Hyp  37.189636 -3.694787 5.932617 Mech  0 0 0 mf  0 nObs -1
PHASE ID Ins Cmp On Pha  FM Date     HrMn   Sec     Err  ErrMag    Coda      Amp       Per  >   TTpred    Res       Weight    StaLoc(X  Y         Z)        SDist    SAzim  RAz  RDip RQual    Tcorr 
UMV15  ?    ?    ? P      ? 20210126 2144   19.6400 GAU  2.00e-02 -1.00e+00  1.64e+11 -1.00e+00 >    1.7829   -0.0315    2.3204   -3.7713   37.2142   -0.5490    0.0657 292.02 292.0 139.2  9    -0.2685
UMV15  ?    ?    ? S      ? 20210126 2144   21.6700 GAU  7.00e-02 -1.00e+00  5.63e+11 -1.00e+00 >    2.9887    0.0399    2.1272   -3.7713   37.2142   -0.5490    0.0657 292.02 292.0 139.2  9     0.4844
EQTA   ?    ?    ? P      ? 20210126 2144   22.0270 GAU  2.00e-02 -1.00e+00  5.95e+09 -1.00e+00 >    4.0400    0.0333    2.2465   -3.4399   37.2050   -1.1000    0.2036  85.60  85.6 105.0  9    -0.2033
EQTA   ?    ?    ? S      ? 20210126 2144   25.1570 GAU  1.50e-01 -1.00e+00  8.96e+09 -1.00e+00 >    6.7715   -0.1740    1.6148   -3.4399   37.2050   -1.1000    0.2036  85.60  85.6 104.9  9     0.4024
ELGU   ?    ?    ? P      ? 20210126 2144   24.0200 GAU  7.00e-02 -1.00e+00  6.57e+09 -1.00e+00 >    6.3435   -0.2032    1.4277   -3.6266   36.8678   -0.7800    0.3264 170.38 170.4  99.7  9    -0.2774
ELGU   ?    ?    ? S      ? 20210126 2144   29.7500 GAU  5.00e-01 -1.00e+00  1.23e+10 -1.00e+00 >   10.6324    0.0578    1.0041   -3.6266   36.8678   -0.7800    0.3264 170.38 170.4  99.6  9     0.9027
EGOR   ?    ?    ? P      ? 20210126 2144   23.9700 GAU  4.00e-02 -1.00e+00  7.89e+09 -1.00e+00 >    6.6020   -0.0182    2.2888   -4.1096   37.1101   -1.3780    0.3401 256.60 256.6  99.4  9    -0.7709
EGOR   ?    ?    ? S      ? 20210126 2144   29.6500 GAU  5.00e-01 -1.00e+00  7.89e+09 -1.00e+00 >   11.0657   -0.2856    0.9433   -4.1096   37.1101   -1.3780    0.3401 256.60 256.6  99.3  9     0.7128
EBER   ?    ?    ? P      ? 20210126 2144   31.7470 GAU  4.00e-02 -1.00e+00  5.06e+08 -1.00e+00 >   13.5651    0.0657    1.8241   -2.8896   36.8979   -1.6900    0.7058 114.17 114.2  94.7  9    -0.0408
E0802  ?    ?    ? P      ? 20210126 2144   34.6200 GAU  7.00e-02 -1.00e+00  5.51e+08 -1.00e+00 >   16.7714   -0.0422    1.8137   -3.3757   38.0258   -0.7700    0.8735  16.73  16.7  93.9  9    -0.2662
E0802  ?    ?    ? S      ? 20210126 2144   47.4700 GAU  1.50e-01 -1.00e+00  7.92e+08 -1.00e+00 >   28.1140   -0.0276    1.3822   -3.3757   38.0258   -0.7700    0.8735  16.73  16.7  94.0  9     1.2266
EMIJ   ?    ?    ? P      ? 20210126 2144   35.9400 GAU  5.00e-01 -1.00e+00  3.48e+08 -1.00e+00 >   20.4350   -2.6520    0.0014   -4.7727   36.5645   -0.4700    1.0650 234.38 234.4  93.4  9     0.0000
EMIJ   ?    ?    ? S      ? 20210126 2144   57.2300 GAU  5.00e-01 -1.00e+00  1.19e+09 -1.00e+00 >   34.2551    4.8179    0.0791   -4.7727   36.5645   -0.4700    1.0650 234.38 234.4  93.4  9     0.0000
EADA   ?    ?    ? P      ? 20210126 2144   40.4900 GAU  1.00e-01 -1.00e+00  5.49e+08 -1.00e+00 >   23.0344   -0.1623    1.4728   -4.5771   38.1673   -0.5650    1.2014 324.73 324.7  81.1  9    -0.5392
EADA   ?    ?    ? S      ? 20210126 2144   56.7900 GAU  7.00e-02 -1.00e+00  1.45e+09 -1.00e+00 >   38.6306   -0.7359    0.4602   -4.5771   38.1673   -0.5650    1.2014 324.73 324.7  93.0  9     0.7382
ENIJ   ?    ?    ? S      ? 20210126 2145    3.4770 GAU  5.00e-01 -1.00e+00  4.35e+08 -1.00e+00 >   38.7984    6.5215    0.0960   -2.2070   36.9715   -0.4400    1.2068  99.96 100.0  92.4  9     0.0000
EALB   ?    ?    ? P      ? 20210126 2144   42.1100 GAU  1.00e-01 -1.00e+00  1.29e+08 -1.00e+00 >   25.4796    0.0369    1.4684   -3.0343   35.9399   -0.0200    1.3577 156.80 156.8  45.8  9    -1.5636
EALB   ?    ?    ? S      ? 20210126 2145    2.2700 GAU  5.00e-01 -1.00e+00  2.92e+08 -1.00e+00 >   43.4041    0.3832    0.7081   -3.0343   35.9399   -0.0200    1.3577 156.80 156.8  71.3  9     0.3257
ELOR   ?    ?    ? P      ? 20210126 2144   49.0500 GAU  1.50e-01 -1.00e+00  3.51e+08 -1.00e+00 >   28.9816   -0.1276    1.3372   -1.7453   37.6391   -0.3950    1.6123  73.22  73.2  45.8  9     2.0389
ELOR   ?    ?    ? S      ? 20210126 2145   12.8900 GAU  5.00e-01 -1.00e+00  5.24e+08 -1.00e+00 >   50.0838    4.6491    0.0739   -1.7453   37.6391   -0.3950    1.6123  73.22  73.2  50.2  9     0.0000
ECAB   ?    ?    ? P      ? 20210126 2144   46.2600 GAU  1.50e-01 -1.00e+00  3.40e+08 -1.00e+00 >   29.1870    0.0316    1.3374   -5.4186   38.0753   -0.5200    1.6272 303.50 303.5  45.8  9    -1.1157
ECAB   ?    ?    ? S      ? 20210126 2145   10.1900 GAU  1.50e-01 -1.00e+00  1.94e+09 -1.00e+00 >   50.4525    0.0682    0.9808   -5.4186   38.0753   -0.5200    1.6272 303.50 303.5  50.2  9     1.5122
TLOR   ?    ?    ? P      ? 20210126 2144   49.9100 GAU  1.50e-01 -1.00e+00  3.50e+08 -1.00e+00 >   29.6357    2.1172    0.0667   -1.6886   37.6552   -0.3140    1.6599  73.10  73.1  45.8  9     0.0000
TLOR   ?    ?    ? S      ? 20210126 2145   15.8100 GAU  5.00e-01 -1.00e+00  1.17e+09 -1.00e+00 >   51.2577    6.3952    0.0986   -1.6886   37.6552   -0.3140    1.6599  73.10  73.1  50.2  9     0.0000
EZAR   ?    ?    ? P      ? 20210126 2144   50.8600 GAU  1.50e-01 -1.00e+00  2.79e+08 -1.00e+00 >   30.5757    2.1272    0.0667   -1.6941   37.8750   -1.0200    1.7282  66.03  66.0  45.8  9     0.0000
EZAR   ?    ?    ? S      ? 20210126 2145   16.1500 GAU  5.00e-01 -1.00e+00  7.86e+08 -1.00e+00 >   52.9448    5.0481    0.0876   -1.6941   37.8750   -1.0200    1.7282  66.03  66.0  50.2  9     0.0000
ESPR   ?    ?    ? P      ? 20210126 2144   50.1870 GAU  1.00e-01 -1.00e+00  3.13e+08 -1.00e+00 >   30.9454   -0.0609    1.3661   -5.8562   36.8686   -0.1350    1.7551 260.11 260.1  45.8  9     1.1455
ESPR   ?    ?    ? S      ? 20210126 2145   19.0970 GAU  5.00e-01 -1.00e+00  1.32e+09 -1.00e+00 >   53.6082    7.3318    0.0721   -5.8562   36.8686   -0.1350    1.7551 260.11 260.1  50.2  9     0.0000
EMUR   ?    ?    ? P      ? 20210126 2144   55.1370 GAU  1.50e-01 -1.00e+00  1.54e+08 -1.00e+00 >   35.0438    0.1917    1.0893   -1.2405   37.8422   -0.5740    2.0531  70.72  70.7  45.8  9     1.7445
ETOB   ?    ?    ? P      ? 20210126 2144   56.1790 GAU  1.00e-01 -1.00e+00  1.31e+08 -1.00e+00 >   37.5156   -0.4175    0.9110   -1.5478   38.6447   -0.8550    2.2328  48.68  48.7  45.8  9     0.9238
EMIN   ?    ?    ? P      ? 20210126 2144   57.4470 GAU  2.00e-02 -1.00e+00  6.01e+07 -1.00e+00 >   40.2617    0.0879    1.1536   -6.6724   37.7675   -0.2400    2.4325 284.64 284.6  45.8  9    -1.0597
EMIN   ?    ?    ? S      ? 20210126 2145   35.6570 GAU  5.00e-01 -1.00e+00  2.78e+08 -1.00e+00 >   70.3276    7.1724    0.0799   -6.6724   37.7675   -0.2400    2.4325 284.64 284.6  50.2  9     0.0000
END_PHASE
END_NLLOC

