NLLOC "/Volumes/LaCie/all_andorra/mini_test/outputs_sh/nll/loc/location.20220201.020301.grid0" "LOCATED" "Location completed."
PUBLIC_ID None
SIGNATURE "surfQuake   obs:/Volumes/LaCie/all_andorra/mini_test/outputs_sh/real/output_directory/nll_input.txt   NLLoc:v7.00.13(17Jan2022)   run:29Feb2024 14h00m36"
COMMENT ""
GRID  391 391 48  5 5 -2  1 1 1 PROB_DENSITY
SEARCH OCTREE nInitial 1000 nEvaluated 17288 smallestNodeSide 0.007617/0.076172/0.091797 oct_tree_integral 1.398079e+00 scatter_volume 1.395581e+00
HYPOCENTER  x 119.848 y 166.827 z 5.29785  OT 0.276594  ix -1 iy -1 iz -1 MAXIMUM_LIKELIHOOD
GEOGRAPHIC  OT 2022 02 01  02 03 0.276594  Lat 42.500311 Long 1.461898 Depth 5.297852
QUALITY  Pmax 9.38764e-05 MFmin 0.962992 MFmax 30.5625 RMS 0.192742 Nphs 20 Gap 60.244 Dist 7.33233 Mamp -9.90 0 Mdur -9.90 0
VPVSRATIO  VpVsRatio 1.7689  Npair 10  Diff 7.5
STATISTICS  ExpectX 119.837340 Y 166.830476 Z 5.212173  CovXX 0.0823774 XY -0.0127454 XZ 0.0481325 YY 0.113063 YZ -0.0678602 ZZ 0.993774 EllAz1  73.4588 Dip1  -1.67594 Len1  0.52177 Az2  343.608 Dip2  5.09074 Len2  0.624584 Len3  1.880314e+00
STAT_GEOG  ExpectLat 42.500340 Long 1.461767 Depth 5.212173
TRANSFORM  SIMPLE LatOrig 41.000000  LongOrig 0.000000  RotCW 0.000000
QML_OriginQuality  assocPhCt 20  usedPhCt 20  assocStaCt -1  usedStaCt 10  depthPhCt -1  stdErr 0.192742  azGap 60.244  secAzGap 60.244  gtLevel -  minDist 7.33233 maxDist 68.4177 medDist 34.4927
QML_OriginUncertainty  horUnc -1  minHorUnc 0.422943  maxHorUnc 0.520224  azMaxHorUnc 160.142
QML_ConfidenceEllipsoid  semiMajorAxisLength 1.88031  semiMinorAxisLength 0.52177  semiIntermediateAxisLength 0.624584  majorAxisPlunge 84.6391  majorAxisAzimuth 145.291  majorAxisRotation 161.456
FOCALMECH  Hyp  42.500311 1.461898 5.297852 Mech  0 0 0 mf  0 nObs -1
PHASE ID Ins Cmp On Pha  FM Date     HrMn   Sec     Err  ErrMag    Coda      Amp       Per  >   TTpred    Res       Weight    StaLoc(X  Y         Z)        SDist    SAzim  RAz  RDip RQual    Tcorr 
PAND   ?    ?    ? P      ? 20220201 0203    1.9000 GAU  2.50e-03 -1.00e+00  1.46e+13 -1.00e+00 >    1.6792    0.1246    1.0013  126.7037  169.4279   -1.8400    7.3323  69.22  69.2 134.2  9    -0.1804
PAND   ?    ?    ? S      ? 20220201 0203    3.3300 GAU  5.00e-03 -1.00e+00  2.42e+13 -1.00e+00 >    2.8211    0.1467    1.0009  126.7037  169.4279   -1.8400    7.3323  69.22  69.2 134.2  9     0.0856
ARBS   ?    ?    ? P      ? 20220201 0203    2.3600 GAU  2.50e-03 -1.00e+00  6.14e+09 -1.00e+00 >    1.9772   -0.0578    1.0013  125.8713  159.5085   -2.1450    9.4785 140.55 140.5 128.1  9     0.1641
ARBS   ?    ?    ? S      ? 20220201 0203    4.3000 GAU  1.00e-02 -1.00e+00  1.59e+10 -1.00e+00 >    3.3216   -0.1790    0.9990  125.8713  159.5085   -2.1450    9.4785 140.55 140.5 128.1  9     0.8808
CEST   ?    ?    ? P      ? 20220201 0203    3.2100 GAU  5.00e-03 -1.00e+00  1.68e+10 -1.00e+00 >    3.5224    0.3481    1.0009  102.6474  177.7621   -1.3250   20.3823 302.45 302.4 108.0  9    -0.9370
CEST   ?    ?    ? S      ? 20220201 0203    5.2000 GAU  7.50e-03 -1.00e+00  1.68e+10 -1.00e+00 >    5.9176   -0.2054    1.0001  102.6474  177.7621   -1.3250   20.3823 302.45 302.4 108.0  9    -0.7887
CSOR   ?    ?    ? P      ? 20220201 0203    5.1700 GAU  2.50e-03 -1.00e+00  1.31e+10 -1.00e+00 >    5.0827    0.1445    1.0013   93.0504  152.8297   -1.2270   30.2332 242.42 242.4 102.5  9    -0.3338
CSOR   ?    ?    ? S      ? 20220201 0203    9.0400 GAU  5.00e-03 -1.00e+00  2.40e+10 -1.00e+00 >    8.5390   -0.0016    1.0009   93.0504  152.8297   -1.2270   30.2332 242.42 242.4 102.5  9     0.2260
CORG   ?    ?    ? P      ? 20220201 0203    5.7700 GAU  5.00e-03 -1.00e+00  3.98e+09 -1.00e+00 >    5.3916   -0.1723    1.0009  108.3978  136.6685   -0.7200   32.2592 200.79 200.8 101.0  9     0.2741
CORG   ?    ?    ? S      ? 20220201 0203   10.7400 GAU  1.50e-02 -1.00e+00  3.98e+09 -1.00e+00 >    9.0579    0.0978    0.9959  108.3978  136.6685   -0.7200   32.2592 200.79 200.8 101.0  9     1.3077
SALF   ?    ?    ? P      ? 20220201 0203    5.6600 GAU  7.50e-03 -1.00e+00  2.76e+12 -1.00e+00 >    6.1184   -0.3257    1.0001   97.0142  195.5921   -0.9030   36.7262 321.56 321.6 100.1  9    -0.4093
SALF   ?    ?    ? S      ? 20220201 0203    9.4900 GAU  1.00e-02 -1.00e+00  2.76e+12 -1.00e+00 >   10.2789    0.2962    0.9990   97.0142  195.5921   -0.9030   36.7262 321.56 321.6 100.1  9    -1.3617
GENF   ?    ?    ? P      ? 20220201 0203    6.1400 GAU  5.00e-03 -1.00e+00  2.85e+09 -1.00e+00 >    6.1450   -0.1257    1.0009  128.2312  202.7420   -0.9600   36.8802  13.14  13.1 100.1  9    -0.1559
GENF   ?    ?    ? S      ? 20220201 0203   10.5200 GAU  7.50e-03 -1.00e+00  5.30e+09 -1.00e+00 >   10.3235   -0.3804    1.0001  128.2312  202.7420   -0.9600   36.8802  13.14  13.1 100.1  9     0.3002
VALC   ?    ?    ? P      ? 20220201 0203    8.5900 GAU  2.50e-03 -1.00e+00  1.44e+09 -1.00e+00 >    8.1793    0.0863    1.0013  167.5721  154.2956   -1.5600   49.3418 104.71 104.7  98.4  9     0.0478
VALC   ?    ?    ? S      ? 20220201 0203   15.4400 GAU  1.50e-02 -1.00e+00  2.47e+09 -1.00e+00 >   13.7412   -0.1585    0.9959  167.5721  154.2956   -1.5600   49.3418 104.71 104.7  98.4  9     1.5807
CARF   ?    ?    ? P      ? 20220201 0203    9.9000 GAU  2.50e-03 -1.00e+00  4.15e+11 -1.00e+00 >    9.4667    0.0474    1.0013  171.9443  190.6884   -1.2200   57.3007  65.39  65.4  97.1  9     0.1093
CARF   ?    ?    ? S      ? 20220201 0203   17.2700 GAU  1.00e-02 -1.00e+00  9.98e+11 -1.00e+00 >   15.9040    0.1917    0.9990  171.9443  190.6884   -1.2200   57.3007  65.39  65.4  97.1  9     0.8977
FNEB   ?    ?    ? P      ? 20220201 0203   11.8200 GAU  5.00e-03 -1.00e+00  1.42e+11 -1.00e+00 >   11.2686   -0.0213    1.0009  171.5685  211.6154   -0.6000   68.4177  49.11  49.1  95.5  9     0.2961
FNEB   ?    ?    ? S      ? 20220201 0203   20.7500 GAU  1.00e-02 -1.00e+00  3.83e+11 -1.00e+00 >   18.9312    0.1441    0.9990  171.5685  211.6154   -0.6000   68.4177  49.11  49.1  95.5  9     1.3980
END_PHASE
END_NLLOC

