NLLOC "/Volumes/LaCie/all_andorra/mini_test/outputs_sh/nll/loc/location.20220201.023032.grid0" "LOCATED" "Location completed."
PUBLIC_ID None
SIGNATURE "surfQuake   obs:/Volumes/LaCie/all_andorra/mini_test/outputs_sh/real/output_directory/nll_input.txt   NLLoc:v7.00.13(17Jan2022)   run:29Feb2024 14h00m36"
COMMENT ""
GRID  391 391 48  5 5 -2  1 1 1 PROB_DENSITY
SEARCH OCTREE nInitial 1000 nEvaluated 19776 smallestNodeSide 0.007617/0.076172/0.091797 oct_tree_integral 1.641176e+00 scatter_volume 1.641176e+00
HYPOCENTER  x 120.861 y 166.827 z 6.49121  OT 30.7553  ix -1 iy -1 iz -1 MAXIMUM_LIKELIHOOD
GEOGRAPHIC  OT 2022 02 01  02 30 30.755345  Lat 42.500311 Long 1.474255 Depth 6.491211
QUALITY  Pmax 7.32925e-05 MFmin 1.09093 MFmax 29.2622 RMS 0.218346 Nphs 16 Gap 57.6957 Dist 6.39522 Mamp -9.90 0 Mdur -9.90 0
VPVSRATIO  VpVsRatio 1.73326  Npair 7  Diff 3.42
STATISTICS  ExpectX 120.858944 Y 166.833617 Z 6.454883  CovXX 0.112919 XY -0.00725094 XZ 0.110655 YY 0.119612 YZ -0.045789 ZZ 0.931729 EllAz1  86.4574 Dip1  -7.35622 Len1  0.588638 Az2  356.926 Dip2  3.62829 Len2  0.642915 Len3  1.830302e+00
STAT_GEOG  ExpectLat 42.500369 Long 1.474229 Depth 6.454883
TRANSFORM  SIMPLE LatOrig 41.000000  LongOrig 0.000000  RotCW 0.000000
QML_OriginQuality  assocPhCt 16  usedPhCt 16  assocStaCt -1  usedStaCt 9  depthPhCt -1  stdErr 0.218346  azGap 57.6957  secAzGap 79.6026  gtLevel -  minDist 6.39522 maxDist 56.3812 medDist 32.6325
QML_OriginUncertainty  horUnc -1  minHorUnc 0.499042  maxHorUnc 0.534582  azMaxHorUnc 147.387
QML_ConfidenceEllipsoid  semiMajorAxisLength 1.8303  semiMinorAxisLength 0.588638  semiIntermediateAxisLength 0.642915  majorAxisPlunge 81.7888  majorAxisAzimuth 112.994  majorAxisRotation 115.365
FOCALMECH  Hyp  42.500311 1.474255 6.491211 Mech  0 0 0 mf  0 nObs -1
PHASE ID Ins Cmp On Pha  FM Date     HrMn   Sec     Err  ErrMag    Coda      Amp       Per  >   TTpred    Res       Weight    StaLoc(X  Y         Z)        SDist    SAzim  RAz  RDip RQual    Tcorr 
PAND   ?    ?    ? P      ? 20220201 0230   32.5500 GAU  2.50e-03 -1.00e+00  2.98e+10 -1.00e+00 >    1.7236    0.2514    1.0013  126.7037  169.4279   -1.8400    6.3952  66.00  66.0 142.5  9    -0.1804
PAND   ?    ?    ? S      ? 20220201 0230   33.9200 GAU  2.50e-03 -1.00e+00  3.89e+10 -1.00e+00 >    2.8957    0.1833    1.0013  126.7037  169.4279   -1.8400    6.3952  66.00  66.0 142.5  9     0.0856
ARBS   ?    ?    ? P      ? 20220201 0230   33.0000 GAU  2.50e-03 -1.00e+00  2.15e+07 -1.00e+00 >    2.0306    0.0500    1.0013  125.8713  159.5085   -2.1450    8.8693 145.61 145.6 134.2  9     0.1641
ARBS   ?    ?    ? S      ? 20220201 0230   34.7500 GAU  7.50e-03 -1.00e+00  4.17e+07 -1.00e+00 >    3.4115   -0.2976    1.0001  125.8713  159.5085   -2.1450    8.8693 145.61 145.6 134.2  9     0.8808
CEST   ?    ?    ? P      ? 20220201 0230   33.9400 GAU  7.50e-03 -1.00e+00  2.61e+07 -1.00e+00 >    3.7208    0.4009    1.0001  102.6474  177.7621   -1.3250   21.2442 300.98 301.0 110.1  9    -0.9370
CEST   ?    ?    ? S      ? 20220201 0230   35.9900 GAU  7.50e-03 -1.00e+00  2.61e+07 -1.00e+00 >    6.2510   -0.2276    1.0001  102.6474  177.7621   -1.3250   21.2442 300.98 301.0 110.1  9    -0.7887
CSOR   ?    ?    ? P      ? 20220201 0230   35.8800 GAU  2.50e-03 -1.00e+00  1.97e+07 -1.00e+00 >    5.2723    0.1861    1.0013   93.0504  152.8297   -1.2270   31.1347 243.28 243.3 104.2  9    -0.3338
CSOR   ?    ?    ? S      ? 20220201 0230   39.5300 GAU  5.00e-03 -1.00e+00  2.09e+07 -1.00e+00 >    8.8575   -0.3089    1.0008   93.0504  152.8297   -1.2270   31.1347 243.28 243.3 104.2  9     0.2260
CORG   ?    ?    ? P      ? 20220201 0230   36.5800 GAU  5.00e-03 -1.00e+00  1.17e+07 -1.00e+00 >    5.4922    0.0583    1.0008  108.3978  136.6685   -0.7200   32.6325 202.45 202.5 102.8  9     0.2741
CORG   ?    ?    ? S      ? 20220201 0230   41.3700 GAU  7.50e-03 -1.00e+00  8.86e+06 -1.00e+00 >    9.2269    0.0801    1.0001  108.3978  136.6685   -0.7200   32.6325 202.45 202.5 102.8  9     1.3077
GENF   ?    ?    ? P      ? 20220201 0230   36.8000 GAU  2.50e-03 -1.00e+00  1.03e+07 -1.00e+00 >    6.1475    0.0530    1.0013  128.2312  202.7420   -0.9600   36.6632  11.60  11.6 101.9  9    -0.1559
GENF   ?    ?    ? S      ? 20220201 0230   41.0800 GAU  7.50e-03 -1.00e+00  1.92e+07 -1.00e+00 >   10.3277   -0.3033    1.0001  128.2312  202.7420   -0.9600   36.6632  11.60  11.6 101.9  9     0.3002
SALF   ?    ?    ? P      ? 20220201 0230   36.3500 GAU  5.00e-03 -1.00e+00  4.47e+09 -1.00e+00 >    6.2583   -0.2544    1.0008   97.0142  195.5921   -0.9030   37.3645 320.34 320.3 101.6  9    -0.4093
SALF   ?    ?    ? S      ? 20220201 0230   40.1400 GAU  1.50e-02 -1.00e+00  1.79e+10 -1.00e+00 >   10.5140    0.2324    0.9959   97.0142  195.5921   -0.9030   37.3645 320.34 320.3 101.6  9    -1.3617
VALC   ?    ?    ? S      ? 20220201 0230   46.4000 GAU  1.50e-02 -1.00e+00  9.52e+06 -1.00e+00 >   14.0734   -0.0095    0.9959  167.5721  154.2956   -1.5600   48.3626 105.02 105.0  99.9  9     1.5807
CARF   ?    ?    ? S      ? 20220201 0230   47.8900 GAU  1.00e-02 -1.00e+00  3.68e+09 -1.00e+00 >   16.3308   -0.0938    0.9990  171.9443  190.6884   -1.2200   56.3812  64.96  65.0  98.3  9     0.8977
END_PHASE
END_NLLOC

