NLLOC "/Volumes/LaCie/all_andorra/mini_test/outputs/nll/loc/location.20220201.020301.grid0" "LOCATED" "Location completed."
PUBLIC_ID None
SIGNATURE "surfQuake   obs:/Volumes/LaCie/all_andorra/mini_test/outputs/real/output_directory/nll_input.txt   NLLoc:v7.00.13(17Jan2022)   run:24Feb2024 11h02m15"
COMMENT ""
GRID  391 391 48  5 5 -2  1 1 1 PROB_DENSITY
SEARCH OCTREE nInitial 1000 nEvaluated 13144 smallestNodeSide 0.007617/0.076172/0.091797 oct_tree_integral 9.445244e-01 scatter_volume 9.421764e-01
HYPOCENTER  x 117.792 y 168.655 z -1.9541  OT 0.876284  ix -1 iy -1 iz -1 MAXIMUM_LIKELIHOOD
GEOGRAPHIC  OT 2022 02 01  02 03 0.876284  Lat 42.516751 Long 1.437189 Depth -1.954102
QUALITY  Pmax 7.34145e-77 MFmin 4.18695 MFmax 29.9892 RMS 0.838613 Nphs 20 Gap 63.6253 Dist 8.94564 Mamp -9.90 0 Mdur -9.90 0
VPVSRATIO  VpVsRatio 1.7438  Npair 10  Diff 8.76
STATISTICS  ExpectX 117.822338 Y 168.610765 Z -0.639524  CovXX 0.0698857 XY -0.00349341 XZ 0.018555 YY 0.0951564 YZ -0.0317455 ZZ 1.09091 EllAz1  83.3351 Dip1  -0.826832 Len1  0.494271 Az2  353.363 Dip2  1.93575 Len2  0.577515 Len3  1.963591e+00
STAT_GEOG  ExpectLat 42.516351 Long 1.437556 Depth -0.639524
TRANSFORM  SIMPLE LatOrig 41.000000  LongOrig 0.000000  RotCW 0.000000
QML_OriginQuality  assocPhCt 20  usedPhCt 20  assocStaCt -1  usedStaCt 10  depthPhCt -1  stdErr 0.838613  azGap 63.6253  secAzGap 63.6253  gtLevel -  minDist 8.94564 maxDist 68.8298 medDist 33.6783
QML_OriginUncertainty  horUnc -1  minHorUnc 0.399558  maxHorUnc 0.468988  azMaxHorUnc 172.272
QML_ConfidenceEllipsoid  semiMajorAxisLength 1.96359  semiMinorAxisLength 0.494271  semiIntermediateAxisLength 0.577515  majorAxisPlunge 87.8949  majorAxisAzimuth 150.217  majorAxisRotation 156.812
FOCALMECH  Hyp  42.516751 1.437189 -1.954102 Mech  0 0 0 mf  0 nObs -1
PHASE ID Ins Cmp On Pha  FM Date     HrMn   Sec     Err  ErrMag    Coda      Amp       Per  >   TTpred    Res       Weight    StaLoc(X  Y         Z)        SDist    SAzim  RAz  RDip RQual    Tcorr 
PAND   ?    ?    ? P      ? 20220201 0203    1.9300 GAU  2.50e-03 -1.00e+00  1.46e+13 -1.00e+00 >    1.4670   -0.4133    1.0028  126.7037  169.4279   -1.8400    8.9456  85.04  85.0  89.3  9     0.0000
PAND   ?    ?    ? S      ? 20220201 0203    3.3600 GAU  5.00e-03 -1.00e+00  2.42e+13 -1.00e+00 >    2.4646    0.0191    1.0023  126.7037  169.4279   -1.8400    8.9456  85.04  85.0  89.3  9     0.0000
ARBS   ?    ?    ? P      ? 20220201 0203    2.3800 GAU  2.50e-03 -1.00e+00  6.14e+09 -1.00e+00 >    2.0013   -0.4975    1.0028  125.8713  159.5085   -2.1450   12.2044 138.54 138.5  90.9  9     0.0000
ARBS   ?    ?    ? S      ? 20220201 0203    4.5100 GAU  2.00e-02 -1.00e+00  6.14e+09 -1.00e+00 >    3.3621    0.2716    0.9930  125.8713  159.5085   -2.1450   12.2044 138.54 138.5  90.9  9     0.0000
CEST   ?    ?    ? P      ? 20220201 0203    3.2400 GAU  5.00e-03 -1.00e+00  1.78e+10 -1.00e+00 >    2.8999   -0.5361    1.0023  102.6474  177.7621   -1.3250   17.6714 301.02 301.0  87.6  9     0.0000
CEST   ?    ?    ? S      ? 20220201 0203    5.3600 GAU  5.00e-03 -1.00e+00  1.78e+10 -1.00e+00 >    4.8718   -0.3880    1.0023  102.6474  177.7621   -1.3250   17.6714 301.02 301.0  87.6  9     0.0000
CSOR   ?    ?    ? P      ? 20220201 0203    5.2000 GAU  2.50e-03 -1.00e+00  1.31e+10 -1.00e+00 >    4.8180   -0.4943    1.0028   93.0504  152.8297   -1.2270   29.3696 237.40 237.4  88.0  9     0.0000
CSOR   ?    ?    ? S      ? 20220201 0203    9.0700 GAU  5.00e-03 -1.00e+00  2.40e+10 -1.00e+00 >    8.0942    0.0995    1.0023   93.0504  152.8297   -1.2270   29.3696 237.40 237.4  88.0  9     0.0000
CORG   ?    ?    ? P      ? 20220201 0203    5.8100 GAU  5.00e-03 -1.00e+00  3.98e+09 -1.00e+00 >    5.4716   -0.5379    1.0023  108.3978  136.6685   -0.7200   33.3376 196.37 196.4  87.1  9     0.0000
CORG   ?    ?    ? S      ? 20220201 0203   10.9800 GAU  1.00e-02 -1.00e+00  4.64e+09 -1.00e+00 >    9.1924    0.9114    1.0004  108.3978  136.6685   -0.7200   33.3376 196.37 196.4  87.1  9     0.0000
SALF   ?    ?    ? P      ? 20220201 0203    9.4600 GAU  2.00e-02 -1.00e+00  2.76e+12 -1.00e+00 >    5.5819    3.0018    0.9930   97.0142  195.5921   -0.9030   34.0190 322.36 322.4  87.5  9     0.0000
SALF   ?    ?    ? S      ? 20220201 0203    9.6300 GAU  1.00e-02 -1.00e+00  1.49e+12 -1.00e+00 >    9.3776   -0.6239    1.0004   97.0142  195.5921   -0.9030   34.0190 322.36 322.4  87.5  9     0.0000
GENF   ?    ?    ? P      ? 20220201 0203    6.2100 GAU  5.00e-03 -1.00e+00  5.30e+09 -1.00e+00 >    5.8488   -0.5150    1.0023  128.2312  202.7420   -0.9600   35.6496  17.03  17.0  87.7  9     0.0000
GENF   ?    ?    ? S      ? 20220201 0203   10.4100 GAU  2.00e-02 -1.00e+00  2.85e+09 -1.00e+00 >    9.8259   -0.2922    0.9930  128.2312  202.7420   -0.9600   35.6496  17.03  17.0  87.7  9     0.0000
VALC   ?    ?    ? P      ? 20220201 0203    8.6200 GAU  5.00e-03 -1.00e+00  1.44e+09 -1.00e+00 >    8.4947   -0.7510    1.0023  167.5721  154.2956   -1.5600   51.8103 106.09 106.1  89.4  9     0.0000
VALC   ?    ?    ? S      ? 20220201 0203   15.4800 GAU  2.00e-02 -1.00e+00  2.47e+09 -1.00e+00 >   14.2712    0.3326    0.9930  167.5721  154.2956   -1.5600   51.8103 106.09 106.1  89.4  9     0.0000
CARF   ?    ?    ? P      ? 20220201 0203    9.9300 GAU  2.50e-03 -1.00e+00  4.15e+11 -1.00e+00 >    9.5869   -0.5332    1.0028  171.9443  190.6884   -1.2200   58.4635  67.86  67.9  88.7  9     0.0000
CARF   ?    ?    ? S      ? 20220201 0203   17.3400 GAU  1.50e-02 -1.00e+00  4.58e+11 -1.00e+00 >   16.1059    0.3578    0.9973  171.9443  190.6884   -1.2200   58.4635  67.86  67.9  88.7  9     0.0000
FNEB   ?    ?    ? P      ? 20220201 0203   11.8500 GAU  5.00e-03 -1.00e+00  1.42e+11 -1.00e+00 >   11.2884   -0.3146    1.0023  171.5685  211.6154   -0.6000   68.8298  51.38  51.4  88.3  9     0.0000
FNEB   ?    ?    ? S      ? 20220201 0203   20.7800 GAU  1.00e-02 -1.00e+00  3.83e+11 -1.00e+00 >   18.9644    0.9393    1.0004  171.5685  211.6154   -0.6000   68.8298  51.38  51.4  88.3  9     0.0000
END_PHASE
END_NLLOC

