NLLOC "/Volumes/LaCie/all_andorra/mini_test/outputs/nll/loc/location.20220201.021011.grid0" "LOCATED" "Location completed."
PUBLIC_ID None
SIGNATURE "surfQuake   obs:/Volumes/LaCie/all_andorra/mini_test/outputs/real/output_directory/nll_input.txt   NLLoc:v7.00.13(17Jan2022)   run:24Feb2024 11h02m16"
COMMENT ""
GRID  391 391 48  5 5 -2  1 1 1 PROB_DENSITY
SEARCH OCTREE nInitial 1000 nEvaluated 14264 smallestNodeSide 0.007617/0.076172/0.091797 oct_tree_integral 1.007553e+00 scatter_volume 1.007553e+00
HYPOCENTER  x 116.382 y 169.722 z -1.9541  OT 10.3749  ix -1 iy -1 iz -1 MAXIMUM_LIKELIHOOD
GEOGRAPHIC  OT 2022 02 01  02 10 10.374876  Lat 42.526342 Long 1.420213 Depth -1.954102
QUALITY  Pmax 3.15682e-22 MFmin 2.22502 MFmax 28.9174 RMS 0.44538 Nphs 20 Gap 66.2487 Dist 10.3256 Mamp -9.90 0 Mdur -9.90 0
VPVSRATIO  VpVsRatio 1.75712  Npair 10  Diff 7.39
STATISTICS  ExpectX 116.393414 Y 169.666464 Z -0.452969  CovXX 0.0701982 XY -0.00185638 XZ 0.0157812 YY 0.097457 YZ -0.0397057 ZZ 1.50395 EllAz1  86.9235 Dip1  -0.544471 Len1  0.496908 Az2  356.939 Dip2  1.64781 Len2  0.583383 Len3  2.305108e+00
STAT_GEOG  ExpectLat 42.525845 Long 1.420337 Depth -0.452969
TRANSFORM  SIMPLE LatOrig 41.000000  LongOrig 0.000000  RotCW 0.000000
QML_OriginQuality  assocPhCt 20  usedPhCt 20  assocStaCt -1  usedStaCt 10  depthPhCt -1  stdErr 0.44538  azGap 66.2487  secAzGap 66.2487  gtLevel -  minDist 10.3256 maxDist 69.2863 medDist 33.1606
QML_OriginUncertainty  horUnc -1  minHorUnc 0.401455  maxHorUnc 0.473751  azMaxHorUnc 176.122
QML_ConfidenceEllipsoid  semiMajorAxisLength 2.30511  semiMinorAxisLength 0.496908  semiIntermediateAxisLength 0.583383  majorAxisPlunge 88.2645  majorAxisAzimuth 158.645  majorAxisRotation 161.682
FOCALMECH  Hyp  42.526342 1.420213 -1.954102 Mech  0 0 0 mf  0 nObs -1
PHASE ID Ins Cmp On Pha  FM Date     HrMn   Sec     Err  ErrMag    Coda      Amp       Per  >   TTpred    Res       Weight    StaLoc(X  Y         Z)        SDist    SAzim  RAz  RDip RQual    Tcorr 
PAND   ?    ?    ? P      ? 20220201 0210   11.6400 GAU  2.50e-03 -1.00e+00  2.45e+11 -1.00e+00 >    1.6932   -0.4280    1.0015  126.7037  169.4279   -1.8400   10.3256  91.63  91.6  89.4  9     0.0000
PAND   ?    ?    ? S      ? 20220201 0210   13.0200 GAU  2.50e-03 -1.00e+00  2.45e+11 -1.00e+00 >    2.8445   -0.1994    1.0015  126.7037  169.4279   -1.8400   10.3256  91.63  91.6  89.4  9     0.0000
ARBS   ?    ?    ? P      ? 20220201 0210   12.1000 GAU  2.50e-03 -1.00e+00  8.05e+07 -1.00e+00 >    2.2859   -0.5608    1.0015  125.8713  159.5085   -2.1450   13.9410 137.11 137.1  90.8  9     0.0000
ARBS   ?    ?    ? S      ? 20220201 0210   14.3100 GAU  1.00e-02 -1.00e+00  8.05e+07 -1.00e+00 >    3.8403    0.0948    0.9992  125.8713  159.5085   -2.1450   13.9410 137.11 137.1  90.8  9     0.0000
CEST   ?    ?    ? P      ? 20220201 0210   12.8800 GAU  5.00e-03 -1.00e+00  4.18e+08 -1.00e+00 >    2.6120   -0.1069    1.0011  102.6474  177.7621   -1.3250   15.9153 300.34 300.3  87.5  9     0.0000
CEST   ?    ?    ? S      ? 20220201 0210   14.9600 GAU  5.00e-03 -1.00e+00  4.18e+08 -1.00e+00 >    4.3882    0.1970    1.0011  102.6474  177.7621   -1.3250   15.9153 300.34 300.3  87.5  9     0.0000
CSOR   ?    ?    ? P      ? 20220201 0210   14.9400 GAU  2.50e-03 -1.00e+00  1.61e+08 -1.00e+00 >    4.7254   -0.1603    1.0015   93.0504  152.8297   -1.2270   28.8048 234.10 234.1  87.9  9     0.0000
CSOR   ?    ?    ? S      ? 20220201 0210   18.7500 GAU  5.00e-03 -1.00e+00  2.44e+08 -1.00e+00 >    7.9387    0.4364    1.0011   93.0504  152.8297   -1.2270   28.8048 234.10 234.1  87.9  9     0.0000
SALF   ?    ?    ? P      ? 20220201 0210   15.4400 GAU  5.00e-03 -1.00e+00  9.14e+10 -1.00e+00 >    5.3031   -0.2380    1.0011   97.0142  195.5921   -0.9030   32.3172 323.18 323.2  87.3  9     0.0000
SALF   ?    ?    ? S      ? 20220201 0210   19.2800 GAU  7.50e-03 -1.00e+00  9.14e+10 -1.00e+00 >    8.9092   -0.0041    1.0003   97.0142  195.5921   -0.9030   32.3172 323.18 323.2  87.3  9     0.0000
CORG   ?    ?    ? P      ? 20220201 0210   15.6200 GAU  5.00e-03 -1.00e+00  5.05e+07 -1.00e+00 >    5.5808   -0.3357    1.0011  108.3978  136.6685   -0.7200   34.0039 193.58 193.6  87.1  9     0.0000
CORG   ?    ?    ? S      ? 20220201 0210   20.4300 GAU  2.00e-02 -1.00e+00  5.05e+07 -1.00e+00 >    9.3757    0.6794    0.9918  108.3978  136.6685   -0.7200   34.0039 193.58 193.6  87.1  9     0.0000
GENF   ?    ?    ? P      ? 20220201 0210   15.8900 GAU  2.50e-03 -1.00e+00  7.34e+07 -1.00e+00 >    5.7557   -0.2406    1.0015  128.2312  202.7420   -0.9600   35.0818  19.74  19.7  87.6  9     0.0000
GENF   ?    ?    ? S      ? 20220201 0210   20.1900 GAU  7.50e-03 -1.00e+00  1.72e+08 -1.00e+00 >    9.6696    0.1455    1.0003  128.2312  202.7420   -0.9600   35.0818  19.74  19.7  87.6  9     0.0000
VALC   ?    ?    ? P      ? 20220201 0210   18.3300 GAU  2.50e-03 -1.00e+00  3.23e+07 -1.00e+00 >    8.7658   -0.8106    1.0015  167.5721  154.2956   -1.5600   53.4636 106.77 106.8  89.4  9     0.0000
VALC   ?    ?    ? S      ? 20220201 0210   25.7900 GAU  1.50e-02 -1.00e+00  3.23e+07 -1.00e+00 >   14.7265    0.6886    0.9961  167.5721  154.2956   -1.5600   53.4636 106.77 106.8  89.4  9     0.0000
CARF   ?    ?    ? P      ? 20220201 0210   19.6700 GAU  2.50e-03 -1.00e+00  7.17e+09 -1.00e+00 >    9.7381   -0.4430    1.0015  171.9443  190.6884   -1.2200   59.3863  69.33  69.3  88.7  9     0.0000
CARF   ?    ?    ? S      ? 20220201 0210   27.0700 GAU  5.00e-03 -1.00e+00  1.59e+10 -1.00e+00 >   16.3601    0.3351    1.0011  171.9443  190.6884   -1.2200   59.3863  69.33  69.3  88.7  9     0.0000
FNEB   ?    ?    ? P      ? 20220201 0210   21.7000 GAU  1.00e-02 -1.00e+00  4.15e+09 -1.00e+00 >   11.3632   -0.0381    0.9992  171.5685  211.6154   -0.6000   69.2863  52.80  52.8  88.3  9     0.0000
FNEB   ?    ?    ? S      ? 20220201 0210   30.4700 GAU  1.50e-02 -1.00e+00  5.00e+09 -1.00e+00 >   19.0901    1.0050    0.9961  171.5685  211.6154   -0.6000   69.2863  52.80  52.8  88.3  9     0.0000
END_PHASE
END_NLLOC

