NLLOC "/Volumes/LaCie/all_andorra/mini_test/outputs_sh/nll/loc/location.20220201.022336.grid0" "LOCATED" "Location completed."
PUBLIC_ID None
SIGNATURE "surfQuake   obs:/Volumes/LaCie/all_andorra/mini_test/outputs_sh/real/output_directory/nll_input.txt   NLLoc:v7.00.13(17Jan2022)   run:29Feb2024 14h00m36"
COMMENT ""
GRID  391 391 48  5 5 -2  1 1 1 PROB_DENSITY
SEARCH OCTREE nInitial 1000 nEvaluated 24416 smallestNodeSide 0.007617/0.076172/0.091797 oct_tree_integral 2.056119e+00 scatter_volume 2.052687e+00
HYPOCENTER  x 120.739 y 166.827 z 6.21582  OT 34.4125  ix -1 iy -1 iz -1 MAXIMUM_LIKELIHOOD
GEOGRAPHIC  OT 2022 02 01  02 23 34.412547  Lat 42.500311 Long 1.472769 Depth 6.215820
QUALITY  Pmax 1.52841e-05 MFmin 1.21593 MFmax 29.9023 RMS 0.243438 Nphs 15 Gap 78.5215 Dist 6.50675 Mamp -9.90 0 Mdur -9.90 0
VPVSRATIO  VpVsRatio 1.71  Npair 7  Diff 3.13
STATISTICS  ExpectX 120.751406 Y 166.822414 Z 6.224109  CovXX 0.164389 XY -0.0294127 XZ 0.203442 YY 0.12971 YZ -0.0941806 ZZ 1.12837 EllAz1  221.368 Dip1  3.58922 Len1  0.627879 Az2  312.14 Dip2  12.1249 Len2  0.682767 Len3  2.039831e+00
STAT_GEOG  ExpectLat 42.500268 Long 1.472915 Depth 6.224109
TRANSFORM  SIMPLE LatOrig 41.000000  LongOrig 0.000000  RotCW 0.000000
QML_OriginQuality  assocPhCt 15  usedPhCt 15  assocStaCt -1  usedStaCt 8  depthPhCt -1  stdErr 0.243438  azGap 78.5215  secAzGap 78.5215  gtLevel -  minDist 6.50675 maxDist 56.4917 medDist 31.806
QML_OriginUncertainty  horUnc -1  minHorUnc 0.509593  maxHorUnc 0.645557  azMaxHorUnc 119.74
QML_ConfidenceEllipsoid  semiMajorAxisLength 2.03983  semiMinorAxisLength 0.627879  semiIntermediateAxisLength 0.682767  majorAxisPlunge 77.3394  majorAxisAzimuth 115.154  majorAxisRotation 341.751
FOCALMECH  Hyp  42.500311 1.472769 6.215820 Mech  0 0 0 mf  0 nObs -1
PHASE ID Ins Cmp On Pha  FM Date     HrMn   Sec     Err  ErrMag    Coda      Amp       Per  >   TTpred    Res       Weight    StaLoc(X  Y         Z)        SDist    SAzim  RAz  RDip RQual    Tcorr 
PAND   ?    ?    ? P      ? 20220201 0223   36.2000 GAU  2.50e-03 -1.00e+00  6.01e+10 -1.00e+00 >    1.6993    0.2686    1.0019  126.7037  169.4279   -1.8400    6.5067  66.44  66.4 141.1  9    -0.1804
PAND   ?    ?    ? S      ? 20220201 0223   37.5800 GAU  2.50e-03 -1.00e+00  2.68e+10 -1.00e+00 >    2.8548    0.2270    1.0019  126.7037  169.4279   -1.8400    6.5067  66.44  66.4 141.1  9     0.0856
ARBS   ?    ?    ? P      ? 20220201 0223   36.6700 GAU  2.50e-03 -1.00e+00  2.57e+07 -1.00e+00 >    2.0072    0.0861    1.0019  125.8713  159.5085   -2.1450    8.9387 144.96 145.0 133.0  9     0.1641
ARBS   ?    ?    ? S      ? 20220201 0223   38.3400 GAU  7.50e-03 -1.00e+00  2.57e+07 -1.00e+00 >    3.3722   -0.3255    1.0007  125.8713  159.5085   -2.1450    8.9387 144.96 145.0 133.0  9     0.8808
CEST   ?    ?    ? P      ? 20220201 0223   37.4800 GAU  7.50e-03 -1.00e+00  2.02e+07 -1.00e+00 >    3.6890    0.3155    1.0007  102.6474  177.7621   -1.3250   21.1398 301.15 301.1 109.6  9    -0.9370
CEST   ?    ?    ? S      ? 20220201 0223   39.5100 GAU  5.00e-03 -1.00e+00  2.91e+07 -1.00e+00 >    6.1975   -0.3113    1.0014  102.6474  177.7621   -1.3250   21.1398 301.15 301.1 109.6  9    -0.7887
CSOR   ?    ?    ? P      ? 20220201 0223   39.4700 GAU  1.00e-02 -1.00e+00  1.46e+07 -1.00e+00 >    5.2438    0.1474    0.9996   93.0504  152.8297   -1.2270   31.0259 243.18 243.2 103.8  9    -0.3338
CSOR   ?    ?    ? S      ? 20220201 0223   43.2100 GAU  5.00e-03 -1.00e+00  2.95e+07 -1.00e+00 >    8.8096   -0.2382    1.0014   93.0504  152.8297   -1.2270   31.0259 243.18 243.2 103.8  9     0.2260
CORG   ?    ?    ? P      ? 20220201 0223   40.3600 GAU  1.50e-02 -1.00e+00  9.13e+06 -1.00e+00 >    5.4747    0.1986    0.9965  108.3978  136.6685   -0.7200   32.5861 202.26 202.3 102.4  9     0.2741
CORG   ?    ?    ? S      ? 20220201 0223   44.8700 GAU  2.00e-02 -1.00e+00  1.21e+07 -1.00e+00 >    9.1975   -0.0477    0.9921  108.3978  136.6685   -0.7200   32.5861 202.26 202.3 102.4  9     1.3077
GENF   ?    ?    ? P      ? 20220201 0223   40.4500 GAU  7.50e-03 -1.00e+00  1.07e+07 -1.00e+00 >    6.1421    0.0512    1.0007  128.2312  202.7420   -0.9600   36.6879  11.78  11.8 101.5  9    -0.1559
GENF   ?    ?    ? S      ? 20220201 0223   44.6900 GAU  5.00e-03 -1.00e+00  1.07e+07 -1.00e+00 >   10.3187   -0.3415    1.0014  128.2312  202.7420   -0.9600   36.6879  11.78  11.8 101.5  9     0.3002
SALF   ?    ?    ? P      ? 20220201 0223   39.9800 GAU  1.00e-02 -1.00e+00  9.55e+09 -1.00e+00 >    6.2367   -0.2600    0.9996   97.0142  195.5921   -0.9030   37.2868 320.48 320.5 101.2  9    -0.4093
SALF   ?    ?    ? S      ? 20220201 0223   43.8900 GAU  1.00e-02 -1.00e+00  4.97e+09 -1.00e+00 >   10.4777    0.3615    0.9996   97.0142  195.5921   -0.9030   37.2868 320.48 320.5 101.2  9    -1.3617
CARF   ?    ?    ? S      ? 20220201 0223   51.5300 GAU  7.50e-03 -1.00e+00  2.19e+09 -1.00e+00 >   16.3508   -0.1310    1.0007  171.9443  190.6884   -1.2200   56.4917  65.01  65.0  98.0  9     0.8977
END_PHASE
END_NLLOC

