NLLOC "/Volumes/LaCie/all_andorra/mini_test/outputs/nll/loc/location.20220201.023032.grid0" "LOCATED" "Location completed."
PUBLIC_ID None
SIGNATURE "surfQuake   obs:/Volumes/LaCie/all_andorra/mini_test/outputs/real/output_directory/nll_input.txt   NLLoc:v7.00.13(17Jan2022)   run:24Feb2024 11h02m16"
COMMENT ""
GRID  391 391 48  5 5 -2  1 1 1 PROB_DENSITY
SEARCH OCTREE nInitial 1000 nEvaluated 25000 smallestNodeSide 0.015234/0.152344/0.183594 oct_tree_integral 2.430867e+00 scatter_volume 2.430867e+00
HYPOCENTER  x 117.437 y 169.912 z -1.9082  OT 31.231  ix -1 iy -1 iz -1 MAXIMUM_LIKELIHOOD
GEOGRAPHIC  OT 2022 02 01  02 30 31.231043  Lat 42.528054 Long 1.433127 Depth -1.908203
QUALITY  Pmax 7.47883e-06 MFmin 1.21467 MFmax 27.3681 RMS 0.243175 Nphs 16 Gap 62.9682 Dist 9.27905 Mamp -9.90 0 Mdur -9.90 0
VPVSRATIO  VpVsRatio 1.72939  Npair 7  Diff 3.3
STATISTICS  ExpectX 117.527420 Y 169.911036 Z 0.624054  CovXX 0.0879504 XY 0.00419975 XZ 0.114721 YY 0.112802 YZ -0.0519261 ZZ 3.00437 EllAz1  101.846 Dip1  -2.40899 Len1  0.538468 Az2  11.8689 Dip2  0.539435 Len2  0.632094 Len3  3.259536e+00
STAT_GEOG  ExpectLat 42.528045 Long 1.434226 Depth 0.624054
TRANSFORM  SIMPLE LatOrig 41.000000  LongOrig 0.000000  RotCW 0.000000
QML_OriginQuality  assocPhCt 16  usedPhCt 16  assocStaCt -1  usedStaCt 9  depthPhCt -1  stdErr 0.243175  azGap 62.9682  secAzGap 74.7911  gtLevel -  minDist 9.27905 maxDist 58.3324 medDist 32.8111
QML_OriginUncertainty  horUnc -1  minHorUnc 0.447993  maxHorUnc 0.510914  azMaxHorUnc 9.33729
QML_ConfidenceEllipsoid  semiMajorAxisLength 3.25954  semiMinorAxisLength 0.538468  semiIntermediateAxisLength 0.632094  majorAxisPlunge 87.5313  majorAxisAzimuth 114.483  majorAxisRotation 102.58
FOCALMECH  Hyp  42.528054 1.433127 -1.908203 Mech  0 0 0 mf  0 nObs -1
PHASE ID Ins Cmp On Pha  FM Date     HrMn   Sec     Err  ErrMag    Coda      Amp       Per  >   TTpred    Res       Weight    StaLoc(X  Y         Z)        SDist    SAzim  RAz  RDip RQual    Tcorr 
PAND   ?    ?    ? P      ? 20220201 0230   32.5700 GAU  2.50e-03 -1.00e+00  3.89e+10 -1.00e+00 >    1.5219   -0.1830    1.0018  126.7037  169.4279   -1.8400    9.2791  92.99  93.0  89.6  9     0.0000
PAND   ?    ?    ? S      ? 20220201 0230   33.9400 GAU  2.50e-03 -1.00e+00  5.55e+10 -1.00e+00 >    2.5568    0.1521    1.0018  126.7037  169.4279   -1.8400    9.2791  92.99  93.0  89.6  9     0.0000
ARBS   ?    ?    ? P      ? 20220201 0230   33.0200 GAU  2.50e-03 -1.00e+00  2.15e+07 -1.00e+00 >    2.1964   -0.4075    1.0018  125.8713  159.5085   -2.1450   13.3928 140.97 141.0  91.0  9     0.0000
ARBS   ?    ?    ? S      ? 20220201 0230   34.9100 GAU  1.50e-02 -1.00e+00  2.15e+07 -1.00e+00 >    3.6900   -0.0110    0.9964  125.8713  159.5085   -2.1450   13.3928 140.97 141.0  91.0  9     0.0000
CEST   ?    ?    ? P      ? 20220201 0230   33.9700 GAU  1.00e-02 -1.00e+00  2.61e+07 -1.00e+00 >    2.7477   -0.0088    0.9995  102.6474  177.7621   -1.3250   16.7441 297.96 298.0  87.7  9     0.0000
CEST   ?    ?    ? S      ? 20220201 0230   36.0200 GAU  1.00e-02 -1.00e+00  2.61e+07 -1.00e+00 >    4.6162    0.1727    0.9995  102.6474  177.7621   -1.3250   16.7441 297.96 298.0  87.7  9     0.0000
CSOR   ?    ?    ? P      ? 20220201 0230   35.9000 GAU  5.00e-03 -1.00e+00  1.97e+07 -1.00e+00 >    4.8843   -0.2153    1.0014   93.0504  152.8297   -1.2270   29.7747 234.99 235.0  88.1  9     0.0000
CSOR   ?    ?    ? S      ? 20220201 0230   39.5700 GAU  5.00e-03 -1.00e+00  2.09e+07 -1.00e+00 >    8.2055    0.1334    1.0014   93.0504  152.8297   -1.2270   29.7747 234.99 235.0  88.1  9     0.0000
SALF   ?    ?    ? P      ? 20220201 0230   36.3800 GAU  7.50e-03 -1.00e+00  4.47e+09 -1.00e+00 >    5.3838   -0.2348    1.0006   97.0142  195.5921   -0.9030   32.8111 321.51 321.5  87.5  9     0.0000
SALF   ?    ?    ? S      ? 20220201 0230   40.1700 GAU  1.50e-02 -1.00e+00  1.79e+10 -1.00e+00 >    9.0447   -0.1058    0.9964   97.0142  195.5921   -0.9030   32.8111 321.51 321.5  87.5  9     0.0000
CORG   ?    ?    ? P      ? 20220201 0230   36.6200 GAU  2.50e-03 -1.00e+00  1.17e+07 -1.00e+00 >    5.6537   -0.2648    1.0018  108.3978  136.6685   -0.7200   34.4507 195.21 195.2  87.3  9     0.0000
CORG   ?    ?    ? S      ? 20220201 0230   41.2900 GAU  1.00e-02 -1.00e+00  1.02e+07 -1.00e+00 >    9.4982    0.5607    0.9995  108.3978  136.6685   -0.7200   34.4507 195.21 195.2  87.3  9     0.0000
GENF   ?    ?    ? P      ? 20220201 0230   36.8200 GAU  2.50e-03 -1.00e+00  1.03e+07 -1.00e+00 >    5.6698   -0.0808    1.0018  128.2312  202.7420   -0.9600   34.5588  18.20  18.2  87.7  9     0.0000
GENF   ?    ?    ? S      ? 20220201 0230   41.1400 GAU  7.50e-03 -1.00e+00  1.21e+07 -1.00e+00 >    9.5253    0.3837    1.0006  128.2312  202.7420   -0.9600   34.5588  18.20  18.2  87.7  9     0.0000
VALC   ?    ?    ? S      ? 20220201 0230   46.4300 GAU  1.50e-02 -1.00e+00  9.52e+06 -1.00e+00 >   15.0483    0.1507    0.9964  167.5721  154.2956   -1.5600   52.5107 107.30 107.3  89.5  9     0.0000
CARF   ?    ?    ? S      ? 20220201 0230   47.9100 GAU  1.00e-02 -1.00e+00  3.68e+09 -1.00e+00 >   16.7187   -0.0397    0.9995  171.9443  190.6884   -1.2200   58.3324  69.13  69.1  88.8  9     0.0000
END_PHASE
END_NLLOC

